locationID,fullAQSID,locationName,longitude,latitude,elevation,countryCode,stateCode,countyName,timezone,houseNumber,street,city,zip,AQSID,airnow_stationID,airnow_parameterName,airnow_monitorType,airnow_siteCode,airnow_status,airnow_agencyID,airnow_agencyName,airnow_EPARegion,airnow_GMTOffsetHours,airnow_CBSA_ID,airnow_CBSA_Name,airnow_stateAQSCode,airnow_countyAQSCode,airnow_MSAName,address,airnow_countryCode,airnow_stateCode,airnow_timezone,airnow_houseNumber,airnow_street,airnow_city,airnow_zip,airnow_FIPSMSACode
289458a09abd7dfe,840MMFS11019,Unit1019,-118.617132,36.138378,1465.08,US,CA,NA,America/Los_Angeles,1500,Nelson Drive,NA,93208,MMFS11019,MMFS11019,PM2.5,Temporary,1019,Active,FS1,Forest Service,USEPA,-8,NA,NA,NA,NA,NA,"Camp Nelson Fire Station 23, 1500 Nelson Drive, Camp Nelson, Tulare County, CA 93208, United States of America",NA,NA,NA,NA,NA,NA,NA,NA
a72d47165da48917,840MM0510182,Mobile_Newport_2017,-120.664494,47.76863,568,US,WA,Chelan,America/Los_Angeles,NA,unnamed road,NA,NA,MM0510182,MM0510182,PM2.5,Temporary,0182,Inactive,WA1,Washington Department of Ecology,R10,-8,NA,NA,NA,NA,NA,"unnamed road, Plain, Chelan County, WA, United States of America",NA,NA,NA,NA,NA,NA,NA,NA
c3946f618a7f6796,840MM0070180,Leavenworth_Mobile,-120.672669,47.55857,343,US,WA,Chelan,America/Los_Angeles,NA,unnamed road,NA,NA,MM0070180,840MM0070180,PM2.5,Temporary,0180,Inactive,WA1,Washington Department of Ecology,R10,-8,NA,NA,NA,NA,NA,"unnamed road, Chelan County, WA, United States of America",NA,NA,NA,NA,NA,NA,NA,NA
f8deadb1a0ebac96,840MM0470180,Brewster_Mobile,-119.784558,48.088789,241,US,WA,Okanogan,America/Los_Angeles,NA,5th Street South,NA,98812,MM0470180,840MM0470180,PM2.5,Temporary,0180,Inactive,WA1,Washington Department of Ecology,R10,-8,NA,NA,NA,NA,NA,"5th Street South, Brewster, Okanogan County, WA 98812, United States of America",NA,NA,NA,NA,NA,NA,NA,NA
fa8288b1da3b2a87,840530630047,Spokane-Monroe St.,-117.4263,47.6997,634.4,US,WA,Spokane,America/Los_Angeles,NA,North Monroe Street,NA,99205,530630047,530630047,PM2.5,Permanent,0047,Active,WA1,Washington Department of Ecology,R10,-8,44060," Spokane, WA ",53,063,NA,"North Monroe Professional Building, North Monroe Street, Spokane, WA 99205, United States of America",NA,NA,NA,NA,NA,NA,NA,NA
9b8e3d84ace997b6,840MM0390181,Mobile_White_Salmon,-117.049026,48.186475,659,US,WA,Pend Oreille,America/Los_Angeles,NA,State Highway 20,Newport,99156,MM0390181,MM0390181,PM2.5,Temporary,0181,Inactive,WA1,Washington Department of Ecology,R10,-8,NA,NA,NA,NA,NA,"State Highway 20, Newport, WA 99156, United States of America",NA,NA,NA,NA,NA,NA,NA,NA
752d690ad965276f,840060890004,Redding,-122.3792,40.5497,152.5,US,CA,Shasta,America/Los_Angeles,NA,Radio Lane,NA,96002,060890004,060890004,PM2.5,Permanent,0004,Active,SHA,Shasta County Air Quality Management District,R9,-8,39820," Redding, CA ",06,089,NA,"Shasta County Juvenile Services, Radio Lane, Redding, CA 96002, United States of America",NA,NA,NA,NA,NA,NA,NA,NA
ade038b39f474721,840MMTUO2011,MMTUO2011,-120.178134,37.859949,887.84,US,CA,NA,America/Los_Angeles,NA,Pine Mountain Lake Arpt Road,NA,95321,MMTUO2011,MMTUO2011,PM2.5,Temporary,2011,Active,TUO,Tuolumne County APCD,R9,-8,NA,NA,NA,NA,NA,"Pine Mountain Lake Arpt Road, Tuolumne County, CA 95321, United States of America",NA,NA,NA,NA,NA,NA,NA,NA
8a5dca69d49da5dc,840060150007,Crescent City,-124.20347,41.75613,13,US,CA,Del Norte,America/Los_Angeles,NA,E Street,Crescent City,95531-4416,840060150007,840060150007,PM2.5,Temporary,1028,Active,NPS,North Coast Unified Air Quality Management District,R9,-8,NA,NA,06,015,NA,"Crescent Elk Elementary School, E Street, Crescent City, CA 95531-4416, United States of America",NA,NA,NA,NA,NA,NA,NA,NA
441f7a14944166be,840061079998,Springville,-118.8108,36.1358,318.08,US,CA,Tulare,America/Los_Angeles,NA,CA 190,NA,93265,840061079998,840061079998,PM2.5,Permanent,9998,Active,FS1,Forest Service,USEPA,-8,NA,NA,06,107,NA,"CA 190, Springville, Tulare County, CA 93265, United States of America",NA,NA,NA,NA,NA,NA,NA,NA
1b222ed254310f1a,840530370002,Ellensburg-Ruby St,-120.545,46.9936,500.2,US,WA,Chelan,America/Los_Angeles,261,East 2nd Avenue,Ellensburg,98926,530370002,530370002,PM2.5,Permanent,0002,Active,WA1,Washington Department of Ecology,R10,-8,21260," Ellensburg, WA ",53,007,NA,"261 East 2nd Avenue, Ellensburg, WA 98926, United States of America",NA,NA,NA,NA,NA,NA,NA,NA
549bd1b0903ab9e2,840MMTUO1000,MMTUO1000,-148.967271,63.722999,660,US,AK,Denali,America/Anchorage,NA,Denali Park Road,NA,NA,MMTUO1000,MMTUO1000,PM2.5,Temporary,1000,Inactive,TUO,Tuolumne County APCD,R9,-9,NA,NA,NA,NA,NA,"Denali Park Road, Denali, AK, United States of America",NA,NA,NA,NA,NA,NA,NA,NA
1f575c8a494d49e9,840MMCA81041,MMCA81041,-121.574943,39.472096,44.5,US,CA,NA,America/Los_Angeles,4801,Feather River Boulevard,Oroville,95965,MMCA81041,MMCA81041,PM2.5,Temporary,1041,Active,CA8,California Air Resources Board,R9,-8,NA,NA,NA,NA,NA,"Oroville Hardboard MDF, 4801 Feather River Boulevard, Oroville, CA 95965, United States of America",NA,NA,NA,NA,NA,NA,NA,NA
7c58fcdbbd88cb87,840MMCA81020,MMCA81020,-122.36362,41.528524,872.01,US,CA,NA,America/Los_Angeles,6089,Lake Shastina Drive,NA,96094,MMCA81020,MMCA81020,PM2.5,Temporary,1020,Active,CA8,California Air Resources Board,R9,-8,NA,NA,NA,NA,NA,"6089 Lake Shastina Drive, Lake Shastina, Siskiyou County, CA 96094, United States of America",NA,NA,NA,NA,NA,NA,NA,NA
2b51fab4dfaf4fc0,840060251003,El Centro - 9th Street,-115.5617,32.7917,-12.57,US,CA,Imperial,America/Los_Angeles,819,West State Street,NA,92243,060251003,060251003,PM2.5,Permanent,1003,Active,CA0,Imperial County Air Pollution Control District,R9,-8,20940," El Centro, CA ",06,025,NA,"819 West State Street, El Centro, CA 92243, United States of America",NA,NA,NA,NA,NA,NA,NA,NA
8770f866fa0581a2,840TT1820013,Lapwai,-116.8062,46.3972,320.46,US,ID,NA,America/Los_Angeles,73,Nez Perce Drive,NA,83540,840TT1820013,840TT1820013,PM2.5,Permanent,0013,Active,NPT,Nez Perce Tribe,R10,-8,NA,NA,NA,NA,NA,"73 Nez Perce Drive, Lapwai, Nez Perce County, ID 83540, United States of America",NA,NA,NA,NA,NA,NA,NA,NA
1eb4d565765a0911,840MMAIR1001,Unit1001,-123.9891,40.8808,27.93,US,CA,NA,America/Los_Angeles,NA,1st Avenue,NA,95525,MMAIR1001,MMAIR1001,PM2.5,Temporary,1001,Active,EPA,USEPA-RTP,USEPA,-8,NA,NA,NA,NA,NA,"Dell'arte International School of Physical Theatre, 1st Avenue, Blue Lake, Humboldt County, CA 95525, United States of America",NA,NA,NA,NA,NA,NA,NA,NA
3466334f28a947fa,840MMFS11055,Unit1055,-119.684823,36.832641,113.64,US,CA,NA,America/Los_Angeles,NA,David E Cook Way,Clovis,93611-0530,MMFS11055,MMFS11055,PM2.5,Temporary,1055,Active,FS1,Forest Service,USEPA,-8,NA,NA,NA,NA,NA,"David E Cook Way, Clovis, CA 93611-0530, United States of America",NA,NA,NA,NA,NA,NA,NA,NA
7b2f4b2f8c5c7847,840MMCA82060,NA,-120.70447,38.673184,816.57,US,CA,NA,America/Los_Angeles,NA,Heagey Hill Road,NA,NA,MMCA82060,840MMCA82060,PM2.5,Temporary,2060,Active,CA8,California Air Resources Board,R9,-8,NA,NA,NA,NA,NA,"Heagey Hill Road, El Dorado County, CA, United States of America",NA,NA,NA,NA,NA,NA,NA,NA
2fb60a7ada35647f,840MMCA82049,NA,-122.517536,38.548493,154.4,US,CA,NA,America/Los_Angeles,NA,History Trail,NA,NA,MMCA82049,840MMCA82049,PM2.5,Temporary,2049,Active,CA8,California Air Resources Board,R9,-8,NA,NA,NA,NA,NA,"History Trail, Bale, Napa County, CA, United States of America",NA,NA,NA,NA,NA,NA,NA,NA
052a4b6e68714fb0,840MMCA82045,MMCA82055,-119.508891,36.731983,119.33,US,CA,NA,America/Los_Angeles,NA,East Kings Canyon Road,NA,93657,MMCA82045,840MMCA82045,PM2.5,Temporary,2045,Active,CA8,California Air Resources Board,R9,-8,NA,NA,NA,NA,NA,"East Kings Canyon Road, Centerville, Fresno County, CA 93657, United States of America",NA,NA,NA,NA,NA,NA,NA,NA
48eca831bab5efd3,840MMCA81037,MMCA81037,-123.198495,39.112369,184.95,US,CA,NA,America/Los_Angeles,31,Gobalet Lane,NA,95482,MMCA81037,MMCA81037,PM2.5,Temporary,1037,Active,CA8,California Air Resources Board,R9,-8,NA,NA,NA,NA,NA,"31 Gobalet Lane, Mendocino County, CA 95482, United States of America",NA,NA,NA,NA,NA,NA,NA,NA
be63451fea552e9a,840MMCA82066,NA,-120.842357,38.911664,797.54,US,CA,NA,America/Los_Angeles,5741,Ooti Road,NA,95634,MMCA82066,840MMCA82066,PM2.5,Temporary,2066,Active,CA8,California Air Resources Board,R9,-8,NA,NA,NA,NA,NA,"5741 Ooti Road, Georgetown, El Dorado County, CA 95634, United States of America",NA,NA,NA,NA,NA,NA,NA,NA
39e440a3de057fdd,840MMNPS1024,MMNPS1024,-123.967001,41.845325,113,US,CA,Del Norte,America/Los_Angeles,10467,Redwood Highway,NA,95543,MMNPS1024,MMNPS1024,PM2.5,Temporary,1024,Active,NPS,National Park Service,NA,NA,NA,NA,NA,NA,NA,"10467 Redwood Highway, Gasquet, Del Norte County, CA 95543, United States of America",NA,NA,NA,NA,NA,NA,NA,NA
018923aa466ba8bf,840MMCA82061,NA,-122.150245,38.738877,101.11,US,CA,NA,America/Los_Angeles,18974,Road 78,NA,95606,MMCA82061,840MMCA82061,PM2.5,Temporary,2061,Active,CA8,California Air Resources Board,R9,-8,NA,NA,NA,NA,NA,"18974 Road 78, Brooks, Yolo County, CA 95606, United States of America",NA,NA,NA,NA,NA,NA,NA,NA
7ee6a9c524d3c8c0,840MMCA82011,NA,-120.044346,34.69196,341.92,US,CA,NA,America/Los_Angeles,NA,unnamed road,NA,NA,MMCA82011,840MMCA82011,PM2.5,Temporary,2011,Active,CA8,California Air Resources Board,R9,-8,NA,NA,NA,NA,NA,"unnamed road, Santa Barbara County, CA, United States of America",NA,NA,NA,NA,NA,NA,NA,NA
6bbab08e3786ef66,840060450006,Ukiah Library,-123.206528,39.150478,189.1,US,CA,Mendocino,America/Los_Angeles,NA,East Standley Street,Ukiah,95482,060450006,060450006,PM2.5,Permanent,0006,Active,MEN,Mendocino County AQMD,R9,-8,NA,NA,06,045,NA,"Mendocino County Library, East Standley Street, Ukiah, CA 95482, United States of America",NA,NA,NA,NA,NA,NA,NA,NA
41bda8dbdeee9fae,840MMCA81006,MMCA82006,-120.596023,38.765827,1116.47,US,CA,NA,America/Los_Angeles,NA,Blair Road,NA,95726,MMCA81006,MMCA81006,PM2.5,Temporary,1006,Active,CA8,California Air Resources Board,R9,-8,NA,NA,NA,NA,NA,"Blair Road, Pollock Pines, El Dorado County, CA 95726, United States of America",NA,NA,NA,NA,NA,NA,NA,NA
4812f91e49e5447f,840MMCA82000,MMCA82058,-120.539954,40.303463,1326.98,US,CA,NA,America/Los_Angeles,NA,Valley View Lane,NA,96114,MMCA82000,840MMCA82000,PM2.5,Temporary,2000,Active,CA8,California Air Resources Board,R9,-8,NA,NA,NA,NA,NA,"Valley View Lane, Janesville, Lassen County, CA 96114, United States of America",NA,NA,NA,NA,NA,NA,NA,NA
4ffa6c50676a39d5,840MMCA81046,MMCA81046,-120.746055,40.432359,1538.07,US,CA,NA,America/Los_Angeles,NA,Alta Drive,NA,NA,840MMCA81046,840MMCA81046,PM2.5,Temporary,1046,Active,CA8,California Air Resources Board,R9,-8,NA,NA,NA,NA,NA,"Alta Drive, Lassen County, CA, United States of America",NA,NA,NA,NA,NA,NA,NA,NA
ba5eb79c1791bf44,840MMCA81015,MMCA81015,-121.967854,38.52562,40.07,US,CA,NA,America/Los_Angeles,656,East Street,NA,95694,MMCA81015,MMCA81015,PM2.5,Temporary,1015,Active,CA8,California Air Resources Board,R9,-8,NA,NA,NA,NA,NA,"656 East Street, Winters, Yolo County, CA 95694, United States of America",NA,NA,NA,NA,NA,NA,NA,NA
317111b3ec9c30d4,840MMCA81014,MMCA81014,-120.546627,35.407916,352.39,US,CA,NA,America/Los_Angeles,NA,Parkhill Road,NA,NA,MMCA81014,MMCA81014,PM2.5,Temporary,1014,Active,CA8,California Air Resources Board,R9,-8,NA,NA,NA,NA,NA,"CAL FIRE/San Luis Obispo County Fire Department Station #40, Parkhill Road, San Luis Obispo County, CA, United States of America",NA,NA,NA,NA,NA,NA,NA,NA
49230151c8af77a9,840MMCA81009,MMCA81009,-122.998252,38.501136,17.63,US,CA,NA,America/Los_Angeles,NA,1st Street,NA,95446,MMCA81009,MMCA81009,PM2.5,Temporary,1009,Active,CA8,California Air Resources Board,R9,-8,NA,NA,NA,NA,NA,"Veterans Memorial Building, 1st Street, Guerneville, Sonoma County, CA 95446, United States of America",NA,NA,NA,NA,NA,NA,NA,NA
27c63622460ac7d5,840MMFS11044,Unit1044,-120.194871,39.403721,1804.1,US,CA,NA,America/Los_Angeles,NA,unnamed road,NA,NA,MMFS11044,MMFS11044,PM2.5,Temporary,1044,Active,FS1,Forest Service,USEPA,-8,NA,NA,NA,NA,NA,"unnamed road, Nevada County, CA, United States of America",NA,NA,NA,NA,NA,NA,NA,NA
b89d2c702f943599,840MMCA81008,MMCA81008,-123.710539,41.116365,505.18,US,CA,NA,America/Los_Angeles,224,Bloody Camp Road,NA,95546,MMCA81008,MMCA81008,PM2.5,Temporary,1008,Active,CA8,California Air Resources Board,R9,-8,NA,NA,NA,NA,NA,"224 Bloody Camp Road, Humboldt County, CA 95546, United States of America",NA,NA,NA,NA,NA,NA,NA,NA
2d2b18629fccab0e,840MMCA81055,MMCA81057,-117.139492,32.809349,126.18,US,CA,NA,America/Los_Angeles,NA,Aero Drive,NA,92123,MMCA81055,840MMCA81055,PM2.5,Temporary,1055,Active,CA8,California Air Resources Board,R9,-8,NA,NA,NA,NA,NA,"Aero Drive & Sandrock Road, Aero Drive, San Diego, CA 92123, United States of America",NA,NA,NA,NA,NA,NA,NA,NA
87b8d8682f25bf76,840MMCA82051,MMCA82051,-122.554893,39.885457,239.85,US,CA,NA,America/Los_Angeles,NA,C D F Loop,NA,96074,MMCA82051,840MMCA82051,PM2.5,Temporary,2051,Active,CA8,California Air Resources Board,R9,-8,NA,NA,NA,NA,NA,"C D F Loop, Paskenta, Tehama County, CA 96074, United States of America",NA,NA,NA,NA,NA,NA,NA,NA
558a6f3090511f41,840MMNPS1027,MMNPS1027,-123.793902,40.102705,161.74,US,CA,NA,America/Los_Angeles,NA,Locust Street,NA,95542-3104,MMNPS1027,MMNPS1027,PM2.5,Temporary,1027,Active,NCA,North Coast Unified Air Quality Management District,R9,-8,NA,NA,NA,NA,NA,"Garberville Humboldt County Sheriff's Station, Locust Street, Garberville, Humboldt County, CA 95542-3104, United States of America",NA,NA,NA,NA,NA,NA,NA,NA
5823e648084733c3,840MMNPS1018,MMNPS1018,-122.295406,41.319913,1158.22,US,CA,NA,America/Los_Angeles,1012,Rockfellow Drive,NA,96067,MMNPS1018,MMNPS1018,PM2.5,Temporary,1018,Active,NPS,National Park Service,USEPA,-8,NA,NA,NA,NA,NA,"1012 Rockfellow Drive, Mount Shasta, Siskiyou County, CA 96067, United States of America",NA,NA,NA,NA,NA,NA,NA,NA
9947e73d257e8107,840MMNPS1043,MMNPS1043,-122.382996,41.42719,1055,US,CA,Siskiyou,America/Los_Angeles,509,Stone Way,NA,96094,MMNPS1043,840MMNPS1043,PM2.5,Temporary,1043,Active,NPS,National Park Service,NA,NA,NA,NA,NA,NA,NA,"509 Stone Way, Weed, Siskiyou County, CA 96094, United States of America",NA,NA,NA,NA,NA,NA,NA,NA
66d17de78609781b,840MMNPS1017,MMNPS1017,-122.642033,41.685884,854.66,US,CA,NA,America/Los_Angeles,759,Dewitt Park Road,NA,96097,MMNPS1017,MMNPS1017,PM2.5,Temporary,1017,Active,NPS,National Park Service,USEPA,-8,NA,NA,NA,NA,NA,"759 Dewitt Park Road, Siskiyou County, CA 96097, United States of America",NA,NA,NA,NA,NA,NA,NA,NA
ab7bea9d2e787edb,840MMFS11045,Unit1013,-119.50563,37.23302,833.54,US,CA,NA,America/Los_Angeles,NA,unnamed road,NA,NA,MMFS11045,MMFS11045,PM2.5,Temporary,1045,Active,FS1,Forest Service,USEPA,-8,NA,NA,NA,NA,NA,"unnamed road, North Fork, Madera County, CA, United States of America",NA,NA,NA,NA,NA,NA,NA,NA
df9d5e4f8bcea16d,840MMFS11027,Unit1027,-119.170954,36.71589,824.04,US,CA,NA,America/Los_Angeles,37208,Cardinal Lane,NA,93675,MMFS11027,MMFS11027,PM2.5,Temporary,1027,Active,FS1,Forest Service,USEPA,-8,NA,NA,NA,NA,NA,"37208 Cardinal Lane, Squaw Valley, CA 93675, United States of America",NA,NA,NA,NA,NA,NA,NA,NA
6af682f1f2bbecb4,840MM0370180,Cle Elum Mobile,-120.956834,47.197041,618.13,US,WA,NA,America/Los_Angeles,NA,Douglas Munro Boulevard,Cle Elum,98922,840MM0370180,840MM0370180,PM2.5,Temporary,0180,Active,WA1,Washington Department of Ecology,R10,-8,NA,NA,NA,NA,NA,"Douglas Munro Boulevard, Cle Elum, WA 98922, United States of America",NA,NA,NA,NA,NA,NA,NA,NA
95f59d17bf70d63f,840MMCA82065,MMCA82065,-122.283497,41.183131,659.71,US,CA,NA,America/Los_Angeles,30974,Jesse James Road,NA,96025,MMCA82065,840MMCA82065,PM2.5,Temporary,2065,Active,CA8,California Air Resources Board,R9,-8,NA,NA,NA,NA,NA,"30974 Jesse James Road, Shasta County, CA 96025, United States of America",NA,NA,NA,NA,NA,NA,NA,NA
5bc35da1ca7f4745,840MMCA82063,MMCA82063,-121.225119,39.48482,760.64,US,CA,NA,America/Los_Angeles,NA,Mulock Road,NA,95925,MMCA82063,840MMCA82063,PM2.5,Temporary,2063,Active,CA8,California Air Resources Board,R9,-8,NA,NA,NA,NA,NA,"Mulock Road, Challenge, Yuba County, CA 95925, United States of America",NA,NA,NA,NA,NA,NA,NA,NA
ca3a2655403523ef,840MMCA82057,MMCA82057,-122.200348,39.936472,88.23,US,CA,NA,America/Los_Angeles,NA,West Side Highway,NA,96021,MMCA82057,840MMCA82057,PM2.5,Temporary,2057,Active,CA8,California Air Resources Board,R9,-8,NA,NA,NA,NA,NA,"West Side Highway, Corning, CA 96021, United States of America",NA,NA,NA,NA,NA,NA,NA,NA
07454c54ae3963f0,840MMCA82041,Burney,-121.654058,40.882777,952.74,US,CA,NA,America/Los_Angeles,NA,Quebec Street,NA,96013,MMCA82041,840MMCA82041,PM2.5,Temporary,2041,Active,CA8,California Air Resources Board,R9,-8,NA,NA,NA,NA,NA,"East Burney Elementary School, Quebec Street, Burney, Shasta County, CA 96013, United States of America",NA,NA,NA,NA,NA,NA,NA,NA
46d53b8bf67857bf,840MMCA82040,NA,-121.951954,41.26173,1118.99,US,CA,NA,America/Los_Angeles,NA,CA 89,NA,96057,MMCA82040,840MMCA82040,PM2.5,Temporary,2040,Active,CA8,California Air Resources Board,R9,-8,NA,NA,NA,NA,NA,"CA 89, McCloud, Siskiyou County, CA 96057, United States of America",NA,NA,NA,NA,NA,NA,NA,NA
67a4f3a177ee5ab2,840MMCA82042,MMCA82042,-119.513719,34.390608,11.23,US,CA,NA,America/Los_Angeles,5578,Retorno Drive,Carpinteria,93013,MMCA82042,840MMCA82042,PM2.5,Temporary,2042,Active,CA8,California Air Resources Board,R9,-8,NA,NA,NA,NA,NA,"5578 Retorno Drive, Carpinteria, CA 93013, United States of America",NA,NA,NA,NA,NA,NA,NA,NA
e0bc908098470fc6,840MMCA82033,MMCA82033,-121.465917,40.654446,1397.44,US,CA,NA,America/Los_Angeles,42470,Sugar Loaf Lane,NA,96071,MMCA82033,840MMCA82033,PM2.5,Temporary,2033,Active,CA8,California Air Resources Board,R9,-8,NA,NA,NA,NA,NA,"42470 Sugar Loaf Lane, Shasta County, CA 96071, United States of America",NA,NA,NA,NA,NA,NA,NA,NA
3a211066931fdb32,840MMCA82031,MMCA82031,-117.137733,33.824544,436.81,US,CA,NA,America/Los_Angeles,NA,11th Street,NA,NA,MMCA82031,840MMCA82031,PM2.5,Temporary,2031,Active,CA8,California Air Resources Board,R9,-8,NA,NA,NA,NA,NA,"11th Street, Riverside County, CA, United States of America",NA,NA,NA,NA,NA,NA,NA,NA
c4f8febddf62017a,840MMCA81034,MMCA81034,-122.208309,40.259088,107.43,US,CA,NA,America/Los_Angeles,NA,Bend Ferry Road,NA,96980,MMCA81034,MMCA81034,PM2.5,Temporary,1034,Active,CA8,California Air Resources Board,R9,-8,NA,NA,NA,NA,NA,"Bend Elementary School, Bend Ferry Road, Bend, Tehama County, CA 96980, United States of America",NA,NA,NA,NA,NA,NA,NA,NA
a9d11209bf7a58c0,840MMCA82027,MMCA82027,-120.112517,40.026262,1324.88,US,CA,NA,America/Los_Angeles,NA,Doyle Grade Road,NA,96109,MMCA82027,840MMCA82027,PM2.5,Temporary,2027,Active,CA8,California Air Resources Board,R9,-8,NA,NA,NA,NA,NA,"Doyle Grade Road, Doyle, Lassen County, CA 96109, United States of America",NA,NA,NA,NA,NA,NA,NA,NA
127e996697f9731c,840060670010,NA,-121.493146,38.568621,5.07,US,CA,NA,America/Los_Angeles,NA,Solons Alley,NA,95811,060670010,060670010,PM2.5,Permanent,0010,Active,CA8,California Air Resources Board,R9,-8,NA,NA,NA,NA,NA,"Solons Alley, Sacramento, CA 95811, United States of America",NA,NA,NA,NA,NA,NA,NA,NA
91efff6ddc7c0f69,840MMCA82018,MMCA82018,-121.551619,39.09119,19.09,US,CA,NA,America/Los_Angeles,NA,Olivehurst Avenue,Olivehurst,95961,MMCA82018,840MMCA82018,PM2.5,Temporary,2018,Active,CA8,California Air Resources Board,R9,-8,NA,NA,NA,NA,NA,"Olivehurst Avenue and 9th Avenue, Olivehurst Avenue, Olivehurst, CA 95961, United States of America",NA,NA,NA,NA,NA,NA,NA,NA
77e757a3bdd6b9f7,840MMCA82009,MMCA82009,-119.993405,37.44293,481.17,US,CA,NA,America/Los_Angeles,NA,Old Highway Road,NA,95338,MMCA82009,840MMCA82009,PM2.5,Temporary,2009,Active,CA8,California Air Resources Board,R9,-8,NA,NA,NA,NA,NA,"Old Highway Road, Bridgeport, Mariposa County, CA 95338, United States of America",NA,NA,NA,NA,NA,NA,NA,NA
af492b53c2819040,840MMCA81039,MMCA82037,-123.024795,38.800396,109.42,US,CA,NA,America/Los_Angeles,499,Muscat Drive,NA,95425,MMCA81039,MMCA81039,PM2.5,Temporary,1039,Active,CA8,California Air Resources Board,R9,-8,NA,NA,NA,NA,NA,"499 Muscat Drive, Cloverdale, Sonoma County, CA 95425, United States of America",NA,NA,NA,NA,NA,NA,NA,NA
3a05fd194ca65d9f,840MMCA82005,MMCA82005,-123.211048,39.195367,201.17,US,CA,NA,America/Los_Angeles,3501,Tollini Lane,NA,95482,MMCA82005,840MMCA82005,PM2.5,Temporary,2005,Active,CA8,California Air Resources Board,R9,-8,NA,NA,NA,NA,NA,"3501 Tollini Lane, The Forks, Mendocino County, CA 95482, United States of America",NA,NA,NA,NA,NA,NA,NA,NA
644ab9d192a17c79,840MMCA81038,MMCA82012,-123.26952,39.79336,435.55,US,CA,NA,America/Los_Angeles,NA,Airport Road,NA,95428,MMCA81038,MMCA81038,PM2.5,Temporary,1038,Active,CA8,California Air Resources Board,R9,-8,NA,NA,NA,NA,NA,"Airport Road, Covelo, Mendocino County, CA 95428, United States of America",NA,NA,NA,NA,NA,NA,NA,NA
b25e16d3a3b17c19,840MMCA82032,MMCA82038,-123.236046,38.907394,338.51,US,CA,NA,America/Los_Angeles,25527,State Route 128,NA,95494,MMCA82032,840MMCA82032,PM2.5,Temporary,2032,Active,CA8,California Air Resources Board,R9,-8,NA,NA,NA,NA,NA,"25527 State Route 128, Boonville, Mendocino County, CA 95494, United States of America",NA,NA,NA,NA,NA,NA,NA,NA
a0124af52c762678,840MMCA81050,MMCA81050,-120.354946,38.258053,1241.37,US,CA,NA,America/Los_Angeles,27,Splash Dam Loop,NA,95223,MMCA81050,840MMCA81050,PM2.5,Temporary,1050,Active,CA8,California Air Resources Board,R9,-8,NA,NA,NA,NA,NA,"27 Splash Dam Loop, Arnold, Calaveras County, CA 95223, United States of America",NA,NA,NA,NA,NA,NA,NA,NA
505ff125a35b6559,840MMCA81048,MMCA81048,-120.125821,39.059958,1929.43,US,CA,NA,America/Los_Angeles,288,Fir Street,NA,96142,MMCA81048,840MMCA81048,PM2.5,Temporary,1048,Active,CA8,California Air Resources Board,R9,-8,NA,NA,NA,NA,NA,"288 Fir Street, El Dorado County, CA 96142, United States of America",NA,NA,NA,NA,NA,NA,NA,NA
19087b88b4f8ba39,840MMCA81042,MMCA81042,-122.402179,40.689089,271.17,US,CA,NA,America/Los_Angeles,NA,Lake Boulevard,Shasta Lake,96089,MMCA81042,MMCA81042,PM2.5,Temporary,1042,Active,CA8,California Air Resources Board,R9,-8,NA,NA,NA,NA,NA,"Shasta Lake Fire District, Lake Boulevard, Shasta Lake, CA 96089, United States of America",NA,NA,NA,NA,NA,NA,NA,NA
0425372f945bc26b,840MMCA81007,MMCA81036,-123.164957,40.552329,709.56,US,CA,NA,America/Los_Angeles,192,Shasta Street,NA,96041,MMCA81007,MMCA81007,PM2.5,Temporary,1007,Active,CA8,California Air Resources Board,R9,-8,NA,NA,NA,NA,NA,"192 Shasta Street, Hayfork, Trinity County, CA 96041, United States of America",NA,NA,NA,NA,NA,NA,NA,NA
fc8ce3aaab826f72,840MMCA81046,MMCA81031,-123.537204,41.304227,130.74,US,CA,NA,America/Los_Angeles,16,Ishi-Pishi Road,NA,95556,840MMCA81046,840MMCA81046,PM2.5,Temporary,1016,Active,CA8,California Air Resources Board,R9,-8,NA,NA,NA,NA,NA,"16 Ishi-Pishi Road, Orleans, Humboldt County, CA 95556, United States of America",NA,NA,NA,NA,NA,NA,NA,NA
edeb07638a44f39e,840MMCA81030,MMCA81030,-120.251434,38.321364,1583.9,US,CA,NA,America/Los_Angeles,NA,Epfd Station 2,NA,NA,MMCA81030,MMCA81030,PM2.5,Temporary,1030,Active,CA8,California Air Resources Board,R9,-8,NA,NA,NA,NA,NA,"Forest Service Facility, Epfd Station 2, Calaveras County, CA, United States of America",NA,NA,NA,NA,NA,NA,NA,NA
af791c60a81fc6ed,840MMCA81026,MMCA81026,-123.129616,41.300944,765.08,US,CA,NA,America/Los_Angeles,98,Cemetery Alley,NA,96027,MMCA81026,MMCA81026,PM2.5,Temporary,1026,Active,CA8,California Air Resources Board,R9,-8,NA,NA,NA,NA,NA,"98 Cemetery Alley, Sawyers Bar, Siskiyou County, CA 96027, United States of America",NA,NA,NA,NA,NA,NA,NA,NA
26ffe6f6fc94422d,840MMCA81005,MMCA81024,-120.533967,41.491231,1334.53,US,CA,NA,America/Los_Angeles,NA,East 8th Street,NA,96101,MMCA81005,MMCA81005,PM2.5,Temporary,1005,Active,CA8,California Air Resources Board,R9,-8,NA,NA,NA,NA,NA,"CalFire Alturas Station, East 8th Street, Alturas, CA 96101, United States of America",NA,NA,NA,NA,NA,NA,NA,NA
167781c1709fcd8a,840060932001,Yreka,-122.63359,41.72679,799.1,US,CA,Siskiyou,America/Los_Angeles,525,South Foothill Drive,Yreka,96097,060932001,060932001,PM2.5,Permanent,2001,Active,SIS,Siskiyou County APCD,R9,-8,NA,NA,06,093,NA,"Air Pollution Control District, 525 South Foothill Drive, Yreka, CA 96097, United States of America",NA,NA,NA,NA,NA,NA,NA,NA
69239db34adfaa1f,840MMCA82068,NA,-123.381121,41.796477,394.12,US,CA,NA,America/Los_Angeles,301,Buckhorn Road,NA,96039,MMCA82068,840MMCA82068,PM2.5,Temporary,2068,Active,CA8,California Air Resources Board,R9,-8,NA,NA,NA,NA,NA,"301 Buckhorn Road, Happy Camp, Siskiyou County, CA 96039, United States of America",NA,NA,NA,NA,NA,NA,NA,NA
0d4968c40f297ff4,840MMCA81013,MMCA81021,-122.128637,41.251634,989.14,US,CA,NA,America/Los_Angeles,NA,Forest Road,NA,NA,MMCA81013,MMCA81013,PM2.5,Temporary,1013,Active,CA8,California Air Resources Board,R9,-8,NA,NA,NA,NA,NA,"McCloud Ranger Station, Forest Road, McCloud, Siskiyou County, CA, United States of America",NA,NA,NA,NA,NA,NA,NA,NA
5e4ef42e7bad72db,840MMCA81051,MMCA81045,-121.486452,41.956229,1230,US,CA,Siskiyou,America/Los_Angeles,NA,Yost Road,NA,96134,MMCA81051,840MMCA81051,PM2.5,Temporary,1051,Active,CA8,California Air Resources Board,R9,-8,NA,NA,NA,NA,NA,"Yost Road, Siskiyou County, CA 96134, United States of America",NA,NA,NA,NA,NA,NA,NA,NA
ce7ffe2577642307,840MMCA81011,MMCA81011,-122.704604,40.984025,761.33,US,CA,NA,America/Los_Angeles,119,Trinity Vista Street,NA,96091,MMCA81011,MMCA81011,PM2.5,Temporary,1011,Active,CA8,California Air Resources Board,R9,-8,NA,NA,NA,NA,NA,"119 Trinity Vista Street, Trinity Center, Trinity County, CA 96091, United States of America",NA,NA,NA,NA,NA,NA,NA,NA
5e96710b10033f3f,840MMCA81032,MMCA81032,-120.664387,40.409346,1300.37,US,CA,NA,America/Los_Angeles,724,South Street,NA,96130,MMCA81032,MMCA81032,PM2.5,Temporary,1032,Active,CA8,California Air Resources Board,R9,-8,NA,NA,NA,NA,NA,"724 South Street, Susanville, CA 96130, United States of America",NA,NA,NA,NA,NA,NA,NA,NA
0d5d49506e3082b0,840MMNPS1032,MMNPS1033,-118.962085,36.739215,2024.97,US,CA,NA,America/Los_Angeles,83999,Hilltop Road,NA,93633,MMNPS1032,MMNPS1032,PM2.5,Temporary,1032,Active,NPS,National Park Service,USEPA,-8,NA,NA,NA,NA,NA,"83999 Hilltop Road, Grant Grove Village, Tulare County, CA 93633, United States of America",NA,NA,NA,NA,NA,NA,NA,NA
9f7489899d373324,840060431001,Yosemite Village - Visitor Center,-119.587094,37.748707,1220.69,US,CA,Mariposa,America/Los_Angeles,NA,Bike Path,NA,95389,060431001,060431001,PM2.5,Permanent,1001,Active,CA8,California Air Resources Board,R9,-8,NA,NA,06,043,NA,"Yosemite Valley Visitor Center and Theater, Bike Path, Yosemite Village, Mariposa County, CA 95389, United States of America",NA,NA,NA,NA,NA,NA,NA,NA
1659635e902dfcc4,840MMNPS1011,MMNPS1011,-119.85966,37.797443,1410.38,US,CA,NA,America/Los_Angeles,9087,Tuolumne Grove Road,NA,95321,MMNPS1011,MMNPS1011,PM2.5,Temporary,1011,Active,NPS,National Park Service,USEPA,-8,NA,NA,NA,NA,NA,"9087 Tuolumne Grove Road, Tuolumne County, CA 95321, United States of America",NA,NA,NA,NA,NA,NA,NA,NA
c82be9f12b6695d5,840MMFS11051,Unit1051,-119.358301,37.863328,2727,US,CA,Tuolumne,America/Los_Angeles,NA,Elizabeth Lake Trail,NA,NA,MMFS11051,MMFS11051,PM2.5,Temporary,1051,Active,FS1,Forest Service,NA,NA,NA,NA,NA,NA,NA,"Elizabeth Lake Trail, Tuolumne Meadows, Tuolumne County, CA, United States of America",NA,NA,NA,NA,NA,NA,NA,NA
9ca0ad7946190be8,840MMCA82009,MMCA82009,-121.601336,40.349479,1556,US,CA,NA,America/Los_Angeles,NA,unnamed road,NA,96063,840MMCA82009,840MMCA82009,PM2.5,Temporary,NA,Active,NA,California Air Resources Board,NA,NA,NA,NA,NA,NA,NA,"unnamed road, Mineral, CA 96063, United States of America",NA,NA,NA,NA,NA,NA,NA,NA
018592228ffbec63,840060090001,San Andreas,-120.680277,38.20185,300.1,US,CA,Calaveras,America/Los_Angeles,350,High School Street,NA,95249,060090001,060090001,PM2.5,Permanent,0001,Active,CA8,California Air Resources Board,R9,-8,NA,NA,06,009,NA,"Calaveras High School, 350 High School Street, San Andreas, Calaveras County, CA 95249, United States of America",NA,NA,NA,NA,NA,NA,NA,NA
7220aaf21ed7f3e4,840MMNPS1055,us.id_7220aa,-116.336889,45.412245,840,US,ID,Idaho,America/Boise,NA,Seven Devils Road,NA,83549,840MMNPS1055,840MMNPS1055,PM2.5,Temporary,NA,Active,NA,National Park Service,NA,NA,NA,NA,NA,NA,NA,"Seven Devils Road, Idaho County, ID 83549, United States of America",NA,NA,NA,NA,NA,NA,NA,NA
f5a77b53f95cb147,840MMFS11030,Unit1030,-118.124464,36.05656,2044,US,CA,Tulare,America/Los_Angeles,NA,Pacific Crest National Scenic Trail #2000,NA,NA,MMFS11030,MMFS11030,PM2.5,Temporary,1030,Active,FS1,Forest Service,NA,NA,NA,NA,NA,NA,NA,"Pacific Crest National Scenic Trail #2000, Tulare County, CA, United States of America",NA,NA,NA,NA,NA,NA,NA,NA
d4565e458c15d32e,840MMCA82007,MMCA82007,-120.832336,38.723459,541,US,CA,El Dorado,America/Los_Angeles,NA,unnamed road,Placerville,95667,840MMCA82007,840MMCA82007,PM2.5,Temporary,2007,Active,CA8,California Air Resources Board,NA,NA,NA,NA,NA,NA,NA,"unnamed road, Apex, Placerville, CA 95667, United States of America",NA,NA,NA,NA,NA,NA,NA,NA
161c2878637d6173,840MMNPS1054,MMNPS1008,-114.936841,44.211205,1942.17,US,ID,NA,America/Boise,NA,Airport Road,NA,83278,840MMNPS1054,840MMNPS1054,PM2.5,Temporary,1054,Active,NPS,National Park Service,USEPA,-7,NA,NA,NA,NA,NA,"Stanley Idaho Disc Golf, Airport Road, Stanley, Custer County, ID 83278, United States of America",NA,NA,NA,NA,NA,NA,NA,NA
576303e9a8fe11fc,840MMNPS1036,MMNPS1036,-123.689404,41.181232,282,US,CA,Humboldt,America/Los_Angeles,NA,unnamed road,NA,NA,840MMNPS1036,840MMNPS1036,PM2.5,Temporary,NA,Active,NA,National Park Service,NA,NA,NA,NA,NA,NA,NA,"unnamed road, Humboldt County, CA, United States of America",NA,NA,NA,NA,NA,NA,NA,NA
b5096bc42194b20e,840MMCA82026,MMCA82026,-121.381094,38.47278,12,US,CA,Sacramento,America/Los_Angeles,8597,Caselman Road,Elk Grove,95828,840MMCA82026,840MMCA82026,PM2.5,Temporary,NA,Active,NA,California Air Resources Board,NA,NA,NA,NA,NA,NA,NA,"8597 Caselman Road, Elk Grove, CA 95828, United States of America",NA,NA,NA,NA,NA,NA,NA,NA
121fad25495a747a,840MMNPS1020,MMNPS1020,-119.783957,37.674544,589.97,US,CA,NA,America/Los_Angeles,NA,Foresta Road,NA,95318,MMNPS1020,MMNPS1020,PM2.5,Temporary,1020,Active,NPS,National Park Service,USEPA,-8,NA,NA,NA,NA,NA,"El Portal Community Hall, Foresta Road, El Portal, Mariposa County, CA 95318, United States of America",NA,NA,NA,NA,NA,NA,NA,NA
d937b56818a5a736,840MMCA82030,MMCA82030,-122.389026,40.014986,160.78,US,CA,NA,America/Los_Angeles,NA,Rancho Tehama Road,NA,NA,MMCA82030,840MMCA82030,PM2.5,Temporary,2030,Active,CA8,California Air Resources Board,R9,-8,NA,NA,NA,NA,NA,"Rancho Tehama Airport, Rancho Tehama Road, Rancho Tehama Reserve, CA, United States of America",NA,NA,NA,NA,NA,NA,NA,NA
93cf457900ab1bf6,840MMFS11060,Unit1045,-118.541365,35.969828,1430.66,US,CA,NA,America/Los_Angeles,NA,unnamed road,NA,NA,MMFS11060,MMFS11060,PM2.5,Temporary,1060,Active,FS1,Forest Service,USEPA,-8,NA,NA,NA,NA,NA,"unnamed road, Johnsondale, Tulare County, CA, United States of America",NA,NA,NA,NA,NA,NA,NA,NA
31fc4ca6c2553a9e,840MMFS11051,Unit1051,-119.346778,37.857556,2879,US,CA,Tuolumne,America/Los_Angeles,NA,NA,NA,NA,MMFS11051,MMFS11051,PM2.5,Temporary,1051,Active,FS1,Forest Service,NA,NA,NA,NA,NA,NA,NA,"Tuolumne Meadows, Tuolumne County, California, United States of America",NA,NA,NA,NA,NA,NA,NA,NA
c34ba71e5c47d7bb,840MMCA82017,MMCA82017,-119.964201,37.47061,674,US,CA,Mariposa,America/Los_Angeles,4808,Fremount Turnpike,NA,95338,840MMCA82017,840MMCA82017,PM2.5,Temporary,2017,Active,CA8,California Air Resources Board,NA,NA,NA,NA,NA,NA,NA,"Yosemite Ziplines and Adventure Ranch, 4808 Fremount Turnpike, Mariposa County, CA 95338, United States of America",NA,NA,NA,NA,NA,NA,NA,NA
c43e9676c813099d,840MMCA81022,MMCA81022,-122.900062,41.457939,902.86,US,CA,NA,America/Los_Angeles,NA,College Street,NA,96027,MMCA81022,MMCA81022,PM2.5,Temporary,1022,Active,CA8,California Air Resources Board,R9,-8,NA,NA,NA,NA,NA,"College Street, Etna, Siskiyou County, CA 96027, United States of America",NA,NA,NA,NA,NA,NA,NA,NA
3f17a85a8e1653c0,840MMCA81023,MMCA81049,-123.394489,41.79004,397.98,US,CA,NA,America/Los_Angeles,NA,unnamed road,NA,NA,MMCA81023,MMCA81023,PM2.5,Temporary,1023,Active,CA8,California Air Resources Board,R9,-8,NA,NA,NA,NA,NA,"unnamed road, Happy Camp, Siskiyou County, CA, United States of America",NA,NA,NA,NA,NA,NA,NA,NA
0d72360824473e2a,840MMCA82035,NA,-119.663665,37.662259,2204,US,CA,Mariposa,America/Los_Angeles,NA,Old Glacier Point Road,NA,NA,MMCA82035,840MMCA82035,PM2.5,Temporary,2035,Active,CA8,California Air Resources Board,R9,-8,NA,NA,NA,NA,NA,"Badger Pass Ski Lodge, Old Glacier Point Road, Mariposa County, CA, United States of America",NA,NA,NA,NA,NA,NA,NA,NA
968ef7fee7e2bcf6,840MMFS11085,MMFS11085,-120.367219,37.98141,658,US,CA,Tuolumne,America/Los_Angeles,19777,Greenley Road,Sonora,95370,MMFS11085,840MMFS11085,PM2.5,Temporary,1085,Active,FS1,Forest Service,NA,NA,NA,NA,NA,NA,NA,"Stanislaus National Forest Supervisors Office, 19777 Greenley Road, Sonora, CA 95370, United States of America",NA,NA,NA,NA,NA,NA,NA,NA
25a03a0e11509ed0,840MMFS11071,us.wa_25a03a,-122.451382,47.029917,120,US,WA,Pierce,America/Los_Angeles,NA,Rice Kandle Road South,NA,98404,840MMFS11071,NA,PM2.5,Temporary,NA,Active,NA,Forest Service,NA,NA,NA,NA,NA,NA,NA,"Rice Kandle Road South, Pierce County, WA 98404, United States of America",NA,NA,NA,NA,NA,NA,NA,NA
5dc5b94e23b34854,840MMFS11071,us.wa_5dc5b9,-122.563198,47.006389,93,US,WA,Pierce,America/Los_Angeles,NA,unnamed road,NA,NA,840MMFS11071,NA,PM2.5,Temporary,NA,Active,NA,Forest Service,NA,NA,NA,NA,NA,NA,NA,"unnamed road, Mock City, Pierce County, WA, United States of America",NA,NA,NA,NA,NA,NA,NA,NA
41c888597eaa0032,840MMFS11051,Unit1051,-119.349353,37.879379,2762,US,CA,Tuolumne,America/Los_Angeles,NA,Tioga Pass Road,NA,NA,MMFS11051,MMFS11051,PM2.5,Temporary,1051,Active,NA,Forest Service,NA,NA,NA,NA,NA,NA,NA,"Tioga Pass Road, Tuolumne Meadows, Tuolumne County, CA, United States of America",NA,NA,NA,NA,NA,NA,NA,NA
9d60fd2e746019a5,840MMMPC1001,MariposaUnit1000,-119.981797,37.498012,643.77,US,CA,NA,America/Los_Angeles,4967,Terrace View Lane,NA,95338,MMMPC1001,840MMMPC1001,PM2.5,Temporary,1001,Active,MPC,Mariposa County,R9,-8,NA,NA,NA,NA,NA,"4967 Terrace View Lane, Mariposa County, CA 95338, United States of America",NA,NA,NA,NA,NA,NA,NA,NA
7c5c4524cabdf95d,840MMCA81029,MMCA83999,-117.119232,32.810116,108,US,CA,NA,America/Los_Angeles,3645,Ruffin Road,NA,92123,MMCA81029,MMCA81029,PM2.5,Temporary,1029,Active,CA8,California Air Resources Board,R9,-8,NA,NA,NA,NA,NA,"3645 Ruffin Road, San Diego, CA 92123, United States of America",NA,NA,NA,NA,NA,NA,NA,NA
e3f230a4e6ec410d,840MMCA82035,MMCA82035,-119.88307,37.46369,686,US,CA,Mariposa,America/Los_Angeles,3999,Bootjack Lane,NA,95338,MMCA82035,840MMCA82035,PM2.5,Temporary,2035,Active,CA8,California Air Resources Board,NA,NA,NA,NA,NA,NA,NA,"3999 Bootjack Lane, Bootjack, Mariposa County, CA 95338, United States of America",NA,NA,NA,NA,NA,NA,NA,NA
d6ffc7b8a87e1892,840MMCA82030,MMCA82030,-119.920106,37.545723,776,US,CA,Mariposa,America/Los_Angeles,NA,Central Yosemite Highway,NA,95345,MMCA82030,840MMCA82030,PM2.5,Temporary,2030,Active,CA8,California Air Resources Board,NA,NA,NA,NA,NA,NA,NA,"YARTS Midpines Park & Ride, Central Yosemite Highway, Midpines, Mariposa County, CA 95345, United States of America",NA,NA,NA,NA,NA,NA,NA,NA
707d8dc90ac70d3f,840MMCA82025,MMCA82025,-119.735999,37.46413,913,US,CA,Mariposa,America/Los_Angeles,5618,Creel Road,NA,95338,MMCA82025,840MMCA82025,PM2.5,Temporary,2025,Active,CA8,California Air Resources Board,NA,NA,NA,NA,NA,NA,NA,"Ponderosa Basin Fire Station, 5618 Creel Road, Ponderosa Basin, Mariposa County, CA 95338, United States of America",NA,NA,NA,NA,NA,NA,NA,NA
6d5c6fc9400fefcb,840MMCA82021,MMCA82021,-119.478829,38.545597,1597,US,CA,Mono,America/Los_Angeles,1206,Larson Lane,NA,96107,MMCA82021,840MMCA82021,PM2.5,Temporary,2021,Active,CA8,California Air Resources Board,NA,NA,NA,NA,NA,NA,NA,"1206 Larson Lane, Mono County, CA 96107, United States of America",NA,NA,NA,NA,NA,NA,NA,NA
7189571beee8f765,840MMCA82017,MMCA82017,-120.200086,37.7132,527,US,CA,Mariposa,America/Los_Angeles,10399,Stockton Street,NA,95311,MMCA82017,840MMCA82017,PM2.5,Temporary,2017,Active,CA8,California Air Resources Board,NA,NA,NA,NA,NA,NA,NA,"10399 Stockton Street, Coulterville, Mariposa County, CA 95311, United States of America",NA,NA,NA,NA,NA,NA,NA,NA
49fa6c3a7b263a3d,840MMCA82008,NA,-119.981132,38.933208,1907.87,US,CA,NA,America/Los_Angeles,2858,Oakland Avenue,South Lake Tahoe,96150,MMCA82008,840MMCA82008,PM2.5,Temporary,2008,Active,CA8,California Air Resources Board,R9,-8,NA,NA,NA,NA,NA,"2858 Oakland Avenue, South Lake Tahoe, CA 96150, United States of America",NA,NA,NA,NA,NA,NA,NA,NA
5d165ded6d70eb65,840MMCA82003,MMCA82003,-119.220049,38.247313,1971,US,CA,Mono,America/Los_Angeles,NA,Travertine Road,NA,93517,MMCA82003,840MMCA82003,PM2.5,Temporary,2003,Active,CA8,California Air Resources Board,R9,-8,NA,NA,NA,NA,NA,"Humboldt-Toiyabe National Forest Ranger Station, Travertine Road, Bridgeport, Mono County, CA 93517, United States of America",NA,NA,NA,NA,NA,NA,NA,NA
51371acbacd2b0ed,840MMNPS1037,MMNPS1038,-122.913322,39.018953,408.05,US,CA,NA,America/Los_Angeles,2715,South Main Street,Lakeport,95453,MMNPS1037,840MMNPS1037,PM2.5,Temporary,1037,Active,NPS,National Park Service,USEPA,-8,NA,NA,NA,NA,NA,"2715 South Main Street, Lakeport, CA 95453, United States of America",NA,NA,NA,NA,NA,NA,NA,NA
a8c4041c03519b58,840MMNPS1036,MMNPS1034,-123.996248,41.513751,11.48,US,CA,NA,America/Los_Angeles,6,Maple Road,NA,95548,MMNPS1036,840MMNPS1036,PM2.5,Temporary,1036,Active,NPS,National Park Service,USEPA,-8,NA,NA,NA,NA,NA,"6 Maple Road, Klamath Glen, Del Norte County, CA 95548, United States of America",NA,NA,NA,NA,NA,NA,NA,NA
2b1eba90a08e5659,840MMNPS1034,MMNPS1036,-123.696399,41.189686,174.84,US,CA,NA,America/Los_Angeles,NA,Weitchpec School Road,NA,NA,MMNPS1034,840MMNPS1034,PM2.5,Temporary,1034,Active,NPS,National Park Service,USEPA,-8,NA,NA,NA,NA,NA,"Weitchpec Elementary School, Weitchpec School Road, Weitchpec, Humboldt County, CA, United States of America",NA,NA,NA,NA,NA,NA,NA,NA
44f731891be357b4,840MMNPS1033,MMNPS1033,-118.611059,36.452776,2293,US,CA,Tulare,America/Los_Angeles,NA,Mineral King Road,NA,NA,MMNPS1033,MMNPS1033,PM2.5,Temporary,1033,Active,NPS,National Park Service,NA,NA,NA,NA,NA,NA,NA,"Mineral King Ranger Station, Mineral King Road, Mineral King, Tulare County, CA, United States of America",NA,NA,NA,NA,NA,NA,NA,NA
33bd2939d4afefd0,840MMNPS1032,MMNPS1030,-118.658717,36.790284,1448,US,CA,NA,America/Los_Angeles,108654,Cedar Trail,NA,93633,MMNPS1032,MMNPS1032,PM2.5,Temporary,1032,Active,NPS,National Park Service,USEPA,-8,NA,NA,NA,NA,NA,"108654 Cedar Trail, Cedar Grove, Fresno County, CA 93633, United States of America",NA,NA,NA,NA,NA,NA,NA,NA
5e6debcbf98194ec,840MMCA81040,MMNPS1031,-124.158468,40.800744,17.25,US,CA,NA,America/Los_Angeles,1120,L Street,NA,95501,MMCA81040,MMCA81040,PM2.5,Temporary,1040,Active,CA8,California Air Resources Board,R9,-8,NA,NA,NA,NA,NA,"1120 L Street, Eureka, CA 95501, United States of America",NA,NA,NA,NA,NA,NA,NA,NA
3c1e5968fd954767,840MMFS11079,us.wa_3c1e59,-122.555022,47.048414,99,US,WA,Pierce,America/Los_Angeles,NA,East Gate Drive,NA,98433,840MMFS11079,NA,PM2.5,Temporary,NA,Active,NA,Forest Service,NA,NA,NA,NA,NA,NA,NA,"East Gate Drive, Pierce County, WA 98433, United States of America",NA,NA,NA,NA,NA,NA,NA,NA
fa9ed742fbf7f110,840MMFS11078,MMFS11078,-122.668641,47.028726,18,US,WA,Pierce,America/Los_Angeles,NA,unnamed road,NA,NA,840MMFS11078,NA,PM2.5,Temporary,NA,Active,NA,Forest Service,NA,NA,NA,NA,NA,NA,NA,"unnamed road, Pierce County, WA, United States of America",NA,NA,NA,NA,NA,NA,NA,NA
babddc7866d7c4a8,840MMFS10401,MMFS10401,-119.343277,37.87735,2645.86,US,CA,NA,America/Los_Angeles,9090,Tuolumne Meadows Lodge Road,NA,95389,MMFS10401,840MMFS10401,PM2.5,Temporary,0401,Active,FS1,Forest Service,USEPA,-8,NA,NA,NA,NA,NA,"9090 Tuolumne Meadows Lodge Road, Tuolumne County, CA 95389, United States of America",NA,NA,NA,NA,NA,NA,NA,NA
d9c1a2c884e60130,840MMFS10055,Oakhurst,-119.667,37.34,717.32,US,CA,NA,America/Los_Angeles,NA,unnamed road,Oakhurst,93644,MMFS10055,MMFS10055,PM2.5,Temporary,0055,Active,FS1,Forest Service,USEPA,-8,NA,NA,NA,NA,NA,"unnamed road, Oakhurst, CA 93644, United States of America",NA,NA,NA,NA,NA,NA,NA,NA
0ef6afd9b6d59f5c,840061079999,Kennedy Meadows,-118.137,36.0214,1830.41,US,CA,Tulare,America/Los_Angeles,NA,Sherman Pass Road,NA,NA,061079999,840061079999,PM2.5,Permanent,9999,Active,FS1,Forest Service,USEPA,-8,NA,NA,06,107,NA,"Sherman Pass Road, Tulare County, CA, United States of America",NA,NA,NA,NA,NA,NA,NA,NA
949d2b0032b8ef04,840MMFS11030,Unit1030,-118.130021,36.023397,1863,US,CA,Tulare,America/Los_Angeles,NA,Sherman Pass Road,NA,NA,MMFS11030,NA,PM2.5,Temporary,NA,Active,NA,Forest Service,NA,NA,NA,NA,NA,NA,NA,"Sherman Pass Road, Tulare County, CA, United States of America",NA,NA,NA,NA,NA,NA,NA,NA
d61396ffd7d7a520,840MMNPS1019,MMNPS1019,-119.814727,37.669609,512.65,US,CA,NA,America/Los_Angeles,NA,Foresta Road,NA,95318,MMNPS1019,MMNPS1019,PM2.5,Temporary,1019,Active,NPS,National Park Service,USEPA,-8,NA,NA,NA,NA,NA,"YARTS El Portal Maintenance Facility, Foresta Road, El Portal, Mariposa County, CA 95318, United States of America",NA,NA,NA,NA,NA,NA,NA,NA
c9433af1b72dae1e,840MMNPS1019,MMNPS1019,-119.65976,37.54126,1265,US,CA,Mariposa,America/Los_Angeles,NA,Chilnualna Falls Road,NA,NA,MMNPS1019,MMNPS1019,PM2.5,Temporary,1019,Active,NPS,National Park Service,USEPA,-8,NA,NA,NA,NA,NA,"Chilnualna Falls Road, North Wawona, Mariposa County, CA, United States of America",NA,NA,NA,NA,NA,NA,NA,NA
f26bd2b23ca95564,840MMNPS1029,MMNPS1029,-121.621699,39.760895,545.42,US,CA,NA,America/Los_Angeles,700,Luther Drive,Paradise,95969,MMNPS1029,MMNPS1029,PM2.5,Temporary,1029,Active,NPS,National Park Service,USEPA,-8,NA,NA,NA,NA,NA,"700 Luther Drive, Paradise, CA 95969, United States of America",NA,NA,NA,NA,NA,NA,NA,NA
16d71b0a47a77f39,840MMFS11052,Devil's Postpile,-119.084587,37.629772,2305.92,US,CA,NA,America/Los_Angeles,NA,Devils Postpile Access Road,NA,NA,MMFS11052,MMFS11052,PM2.5,Temporary,1052,Active,FS1,Forest Service,USEPA,-8,NA,NA,NA,NA,NA,"Devils Postpile Ranger Station, Devils Postpile Access Road, Madera County, CA, United States of America",NA,NA,NA,NA,NA,NA,NA,NA
786ab2a4f8f46681,840MMFS11052,Minaret Creek,-119.08993,37.640426,2397,US,CA,NA,America/Los_Angeles,NA,John Muir Trail,NA,NA,MMFS11052,MMFS11052,PM2.5,Temporary,1052,Active,FS1,Forest Service,USEPA,-8,NA,NA,NA,NA,NA,"John Muir Trail, Madera County, CA, United States of America",NA,NA,NA,NA,NA,NA,NA,NA
0da1e85464a22ed9,840MMFS11043,Unit1043,-119.306116,36.911058,447,US,CA,Fresno,America/Los_Angeles,NA,unnamed road,NA,NA,MMFS11043,MMFS11043,PM2.5,Temporary,1043,Active,FS1,Forest Service,USEPA,-8,NA,NA,NA,NA,NA,"unnamed road, Fresno County, CA, United States of America",NA,NA,NA,NA,NA,NA,NA,NA
183076502b736460,840MMCA82059,MMCA82059,-118.431308,35.13579,1217,US,CA,Kern,America/Los_Angeles,408,North Dennison Road,Tehachapi,93561,MMCA82059,840MMCA82059,PM2.5,Temporary,2059,Active,CA8,California Air Resources Board,R9,-8,NA,NA,NA,NA,NA,"408 North Dennison Road, Tehachapi, CA 93561, United States of America",NA,NA,NA,NA,NA,NA,NA,NA
1b022c9325efd699,840MMNPS1029,MMNPS1029,-121.590242,39.508445,68,US,CA,Butte,America/Los_Angeles,1137,Sierra Avenue,NA,95965,MMNPS1029,NA,PM2.5,Temporary,NA,Active,NA,National Park Service,NA,NA,NA,NA,NA,NA,NA,"1137 Sierra Avenue, Thermalito, Butte County, CA 95965, United States of America",NA,NA,NA,NA,NA,NA,NA,NA
2275481147c5c093,840MMNPS1016,MMNPS1016,-118.912346,36.427875,254.81,US,CA,NA,America/Los_Angeles,NA,unnamed road,NA,93271,MMNPS1016,MMNPS1016,PM2.5,Temporary,1016,Active,NPS,National Park Service,USEPA,-8,NA,NA,NA,NA,NA,"unnamed road, Tulare County, CA 93271, United States of America",NA,NA,NA,NA,NA,NA,NA,NA
09af87e9725e6e1a,840MMFS11079,NA,-84.840589,32.370776,128.4,US,GA,NA,America/New_York,NA,Eighth Division Road,Chattahoochee County,NA,MMFS11079,840MMFS11079,PM2.5,Temporary,1079,Active,FS1,Forest Service,USEPA,-5,NA,NA,NA,NA,NA,"Eighth Division Road, Chattahoochee County, GA, United States of America",NA,NA,NA,NA,NA,NA,NA,NA
68ca82cddfa84ebe,840MMFS11078,MMFS11078,-84.776516,32.452551,131.18,US,GA,NA,America/New_York,NA,Lorraine Road,NA,NA,MMFS11078,840MMFS11078,PM2.5,Temporary,1078,Active,FS1,Forest Service,USEPA,-5,NA,NA,NA,NA,NA,"Lorraine Road, Columbus, GA, United States of America",NA,NA,NA,NA,NA,NA,NA,NA
e606600e6df6fd7d,840MMFS10592,MMFS10592,-107.639839,33.304604,1812.16,US,NM,NA,America/Denver,NA,County Road CO07,NA,87943,MMFS10592,840MMFS10592,PM2.5,Temporary,0592,Active,FS1,Forest Service,USEPA,-7,NA,NA,NA,NA,NA,"County Road CO07, Sierra County, NM 87943, United States of America",NA,NA,NA,NA,NA,NA,NA,NA
a56f36849142ff48,840MMCA82039,MMCA82039,-120.109942,34.664472,254.82,US,CA,NA,America/Los_Angeles,NA,unnamed road,NA,93441,MMCA82039,840MMCA82039,PM2.5,Temporary,2039,Active,CA8,California Air Resources Board,R9,-8,NA,NA,NA,NA,NA,"unnamed road, Los Olivos, Santa Barbara County, CA 93441, United States of America",NA,NA,NA,NA,NA,NA,NA,NA
c4f49d7e7e852b1f,840MMFS10882,MMFS10882,-105.124107,39.714355,1726.91,US,CO,NA,America/Denver,810,Eighth Street,NA,80225,MMFS10882,840MMFS10882,PM2.5,Temporary,0882,Active,FS1,Forest Service,USEPA,-7,NA,NA,NA,NA,NA,"Building 810 - GSA, 810 Eighth Street, Lakewood, CO 80225, United States of America",NA,NA,NA,NA,NA,NA,NA,NA
9e06ddbd5f5e1d2f,840MMNPS1035,MMNPS1035,-122.255666,40.171069,99.81,US,CA,NA,America/Los_Angeles,NA,Haley Lane,Red Bluff,96080,MMNPS1035,840MMNPS1035,PM2.5,Temporary,1035,Active,NPS,National Park Service,USEPA,-8,NA,NA,NA,NA,NA,"Haley Lane, Red Bluff, CA 96080, United States of America",NA,NA,NA,NA,NA,NA,NA,NA
cec6dc2148ab7bb3,840MMCA82034,MMCA82034,-120.517337,34.750614,161,US,CA,Santa Barbara,America/Los_Angeles,NA,Cabrillo Highway,NA,93437,MMCA82034,840MMCA82034,PM2.5,Temporary,2034,Active,CA8,California Air Resources Board,R9,-8,NA,NA,NA,NA,NA,"Vandenberg Middle School, Cabrillo Highway, Vandenberg AFB, Santa Barbara County, CA 93437, United States of America",NA,NA,NA,NA,NA,NA,NA,NA
71bcdf39b6d635a4,840MMFS11026,Unit1026,-118.41749,35.755091,822.8,US,CA,NA,America/Los_Angeles,13298,Sierra Way,NA,93238,MMFS11026,MMFS11026,PM2.5,Temporary,1026,Active,FS1,Forest Service,USEPA,-8,NA,NA,NA,NA,NA,"13298 Sierra Way, Kern County, CA 93238, United States of America",NA,NA,NA,NA,NA,NA,NA,NA
3270750a2b5ccb8b,840MMAIR1002,Unit1002,-123.6752,41.0471,108.16,US,CA,NA,America/Los_Angeles,194,Pine Creek Road,NA,95546,MMAIR1002,MMAIR1002,PM2.5,Temporary,1002,Active,EPA,USEPA-RTP,USEPA,-8,NA,NA,NA,NA,NA,"194 Pine Creek Road, Humboldt County, CA 95546, United States of America",NA,NA,NA,NA,NA,NA,NA,NA
77ab513f6b529b0a,840MMCA82054,MMCA82054,-119.758852,34.445765,55.17,US,CA,NA,America/Los_Angeles,4033,Invierno Drive,NA,93110,MMCA82054,840MMCA82054,PM2.5,Temporary,2054,Active,CA8,California Air Resources Board,R9,-8,NA,NA,NA,NA,NA,"4033 Invierno Drive, Santa Barbara, CA 93110, United States of America",NA,NA,NA,NA,NA,NA,NA,NA
9c1b4da3a71a0e2a,840MMCA82007,MMCA82007,-120.591431,38.713868,1087.56,US,CA,NA,America/Los_Angeles,NA,Sly Park Road,NA,NA,MMCA82007,840MMCA82007,PM2.5,Temporary,2007,Active,CA8,California Air Resources Board,R9,-8,NA,NA,NA,NA,NA,"Sly Park Conservation and Environmental Education School, Sly Park Road, Sly Park, El Dorado County, CA, United States of America",NA,NA,NA,NA,NA,NA,NA,NA
a8e9a49ff74b21c3,840MMCA82026,MMCA82026,-121.507,38.560748,4.21,US,CA,NA,America/Los_Angeles,2701,5th Street,NA,95818,MMCA82026,840MMCA82026,PM2.5,Temporary,2026,Active,CA8,California Air Resources Board,R9,-8,NA,NA,NA,NA,NA,"2701 5th Street, Sacramento, CA 95818, United States of America",NA,NA,NA,NA,NA,NA,NA,NA
580b864f1681e771,840MMNPS1054,us.id_580b86,-116.271443,43.648156,801.11,US,ID,NA,America/Boise,5373,North Alworth Street,Garden City,83714,840MMNPS1054,NA,PM2.5,NA,NA,Active,NA,National Park Service,NA,NA,NA,NA,NA,NA,NA,"5373 North Alworth Street, Garden City, ID 83714, United States of America",NA,NA,NA,NA,NA,NA,NA,NA
33cfd704075f12c3,840MMNPS1044,NA,-122.051668,41.784096,1299.67,US,CA,NA,America/Los_Angeles,NA,unnamed road,NA,NA,MMNPS1044,840MMNPS1044,PM2.5,Temporary,1044,Active,NPS,National Park Service,USEPA,-8,NA,NA,NA,NA,NA,"unnamed road, Siskiyou County, CA, United States of America",NA,NA,NA,NA,NA,NA,NA,NA
cc1a7689bbf6b688,NA,us.nm_cc1a76,-107.9435,32.80569,1828,US,NM,Grant,America/Denver,NA,La Avenida de San Lorenzo,NA,88041,NA,NA,NA,NA,NA,NA,NA,NA,NA,NA,NA,NA,NA,NA,NA,"La Avenida de San Lorenzo, Grant County, NM 88041, United States of America",NA,NA,NA,NA,NA,NA,NA,NA
6a9d812dd5f11126,NA,us.nm_6a9d81,-108.2431,32.79044,1866,US,NM,Grant,America/Denver,3005,Camino del Bosque,Silver City,88061,NA,NA,NA,NA,NA,NA,NA,NA,NA,NA,NA,NA,NA,NA,NA,"Silver City Ranger District Office, 3005 Camino del Bosque, Silver City, NM 88061, United States of America",NA,NA,NA,NA,NA,NA,NA,NA
5dee0af2d2745180,NA,us.nm_5dee0a,-107.5672,32.91995,1608,US,NM,Sierra,America/Denver,NA,NM 27,NA,88042,NA,NA,NA,NA,NA,NA,NA,NA,NA,NA,NA,NA,NA,NA,NA,"Hillsboro Community Library, NM 27, Hillsboro, Sierra County, NM 88042, United States of America",NA,NA,NA,NA,NA,NA,NA,NA
0432c6025ac760fb,NA,us.nm_0432c6,-107.2485,33.14824,1349,US,NM,Sierra,America/Denver,NA,New School Road,Truth or Consequences,87901,NA,NA,NA,NA,NA,NA,NA,NA,NA,NA,NA,NA,NA,NA,NA,"Lakeway Shopping Center, New School Road, Truth or Consequences, NM 87901, United States of America",NA,NA,NA,NA,NA,NA,NA,NA
2a9a8a2d9fb0d52d,NA,us.nm_2a9a8a,-108.2413,33.22387,1741,US,NM,Catron,America/Denver,NA,Gila Cliff Dwelling Visitor Center Road,NA,NA,NA,NA,NA,NA,NA,NA,NA,NA,NA,NA,NA,NA,NA,NA,NA,"Gila Visitor Center, Gila Cliff Dwelling Visitor Center Road, Catron County, NM, United States of America",NA,NA,NA,NA,NA,NA,NA,NA
9fbd8adf8e6e80a4,NA,Mammoth Mountain,-119.0477,37.63359,3016,US,CA,Madera,America/Los_Angeles,NA,Off the Top,Mammoth Lakes,NA,NA,NA,NA,NA,NA,NA,NA,NA,NA,NA,NA,NA,NA,NA,NA,"Off the Top, Mammoth Lakes, CA, United States of America",NA,NA,NA,NA,NA,NA,NA,NA
655669c3f69d017c,NA,us.ca_655669,-121.8183,39.71571,62,US,CA,Butte,America/Los_Angeles,2318,Park Avenue,Chico,95928,NA,NA,NA,NA,NA,NA,NA,NA,NA,NA,NA,NA,NA,NA,NA,"2318 Park Avenue, Stirling Junction, Chico, CA 95928, United States of America",NA,NA,NA,NA,NA,NA,NA,NA
f099154528659d39,NA,us.nm_f09915,-107.3128,32.88059,1277,US,NM,Sierra,America/Denver,101,East Grand Percha Road,NA,87930,NA,NA,NA,NA,NA,NA,NA,NA,NA,NA,NA,NA,NA,NA,NA,"101 East Grand Percha Road, Sierra County, NM 87930, United States of America",NA,NA,NA,NA,NA,NA,NA,NA
068b26da32307f60,NA,us.ca_068b26,-120.4208,34.88158,127,US,CA,Santa Barbara,America/Los_Angeles,4144,Glenview Drive,Orcutt,93455,NA,NA,NA,NA,NA,NA,NA,NA,NA,NA,NA,NA,NA,NA,NA,"4144 Glenview Drive, Orcutt, CA 93455, United States of America",NA,NA,NA,NA,NA,NA,NA,NA
8dc4483cf05a6980,NA,us.ca_8dc448,-119.6406,37.47507,1563,US,CA,Mariposa,America/Los_Angeles,NA,Laurel Way,NA,NA,NA,NA,NA,NA,NA,NA,NA,NA,NA,NA,NA,NA,NA,NA,NA,"Fire Station, Laurel Way, Fish Camp, Mariposa County, CA, United States of America",NA,NA,NA,NA,NA,NA,NA,NA
0817e1dfeb6a5296,NA,us.id_0817e1,-116.2478,46.23396,1002,US,ID,Lewis,America/Los_Angeles,NA,5th Avenue,Nezperce,83543,NA,NA,NA,NA,NA,NA,NA,NA,NA,NA,NA,NA,NA,NA,NA,"5th Avenue, Nezperce, ID 83543, United States of America",NA,NA,NA,NA,NA,NA,NA,NA
af5f3225446ace9a,NA,us.nm_af5f32,-107.2394,34.11811,2003,US,NM,Socorro,America/Denver,NA,Kelly Road,NA,87825,NA,NA,NA,NA,NA,NA,NA,NA,NA,NA,NA,NA,NA,NA,NA,"Magdalena Ranger Station, Kelly Road, Magdalena, Socorro County, NM 87825, United States of America",NA,NA,NA,NA,NA,NA,NA,NA
fdf02db8e74f8332,NA,us.id_fdf02d,-116.2352,46.46472,318,US,ID,Clearwater,America/Los_Angeles,45555,US 12,Orofino,83544,NA,NA,NA,NA,NA,NA,NA,NA,NA,NA,NA,NA,NA,NA,NA,"Te-Wee-Pu, 45555 US 12, Orofino, ID 83544, United States of America",NA,NA,NA,NA,NA,NA,NA,NA
75eb09e86d77af66,NA,us.id_75eb09,-116.5359,46.33493,1062,US,ID,Nez Perce,America/Los_Angeles,NA,Gifford Reubens Road,NA,83548,NA,NA,NA,NA,NA,NA,NA,NA,NA,NA,NA,NA,NA,NA,NA,"Gifford Reubens Road, Nez Perce County, ID 83548, United States of America",NA,NA,NA,NA,NA,NA,NA,NA
eac1b3d66a36c31f,NA,us.ca_eac1b3,-119.6492,37.55473,1333,US,CA,Mariposa,America/Los_Angeles,NA,Spelt Road,NA,NA,NA,NA,NA,NA,NA,NA,NA,NA,NA,NA,NA,NA,NA,NA,NA,"Spelt Road, North Wawona, Mariposa County, CA, United States of America",NA,NA,NA,NA,NA,NA,NA,NA
1255097a8d1069dc,NA,us.ca_125509,-122.5688,41.90306,711,US,CA,Siskiyou,America/Los_Angeles,14642,Bradley-Henley Road,NA,96044,NA,NA,NA,NA,NA,NA,NA,NA,NA,NA,NA,NA,NA,NA,NA,"14642 Bradley-Henley Road, Siskiyou County, CA 96044, United States of America",NA,NA,NA,NA,NA,NA,NA,NA
27a9a690d3e5fea7,NA,us.ca_27a9a6,-123.1954,41.84011,418,US,CA,Siskiyou,America/Los_Angeles,NA,CA 96,NA,96086,NA,NA,NA,NA,NA,NA,NA,NA,NA,NA,NA,NA,NA,NA,NA,"Seiad Work Center, CA 96, Seiad Valley, Siskiyou County, CA 96086, United States of America",NA,NA,NA,NA,NA,NA,NA,NA
4522904153456425,NA,us.ca_452290,-118.6502,36.40924,2800,US,CA,Tulare,America/Los_Angeles,NA,NA,NA,NA,NA,NA,NA,NA,NA,NA,NA,NA,NA,NA,NA,NA,NA,NA,NA,"Tulare County, California, United States of America",NA,NA,NA,NA,NA,NA,NA,NA
8d01614cc635c2e6,NA,us.wa_8d0161,-122.3976,47.55984,69,US,WA,King,America/Los_Angeles,4740,51st Avenue Southwest,Seattle,98116,NA,NA,NA,NA,NA,NA,NA,NA,NA,NA,NA,NA,NA,NA,NA,"4740 51st Avenue Southwest, Seattle, WA 98116, United States of America",NA,NA,NA,NA,NA,NA,NA,NA
3823577e3ff71716,NA,us.wa_382357,-122.6962,46.92466,166,US,WA,Pierce,America/Los_Angeles,NA,NA,NA,NA,NA,NA,NA,NA,NA,NA,NA,NA,NA,NA,NA,NA,NA,NA,NA,"Joint Base Lewis-McChord, Pierce County, Washington, United States of America",NA,NA,NA,NA,NA,NA,NA,NA
85b8c8bef5ae67fd,NA,us.ca_85b8c8,-118.6151,36.44272,2541,US,CA,Tulare,America/Los_Angeles,NA,Tar Gap Trail,NA,NA,NA,NA,NA,NA,NA,NA,NA,NA,NA,NA,NA,NA,NA,NA,NA,"Tar Gap Trail, Tulare County, CA, United States of America",NA,NA,NA,NA,NA,NA,NA,NA
3ef3bc56807f08ea,NA,us.ca_3ef3bc,-119.8532,34.41254,15,US,CA,Santa Barbara,America/Los_Angeles,NA,Ocean Road,Isla Vista,93106,NA,NA,NA,NA,NA,NA,NA,NA,NA,NA,NA,NA,NA,NA,NA,"Student Resource Building, Ocean Road, Isla Vista, CA 93106, United States of America",NA,NA,NA,NA,NA,NA,NA,NA
3ccf561abefaedd1,NA,us.ca_3ccf56,-119.8196,37.76163,2009,US,CA,Tuolumne,America/Los_Angeles,NA,Crane Flat Fire Road,NA,NA,NA,NA,NA,NA,NA,NA,NA,NA,NA,NA,NA,NA,NA,NA,NA,"Crane Flat Fire Road, Tuolumne County, CA, United States of America",NA,NA,NA,NA,NA,NA,NA,NA
2937838d72dd9272,NA,us.ca_293783,-119.5691,37.7423,1212,US,CA,Mariposa,America/Los_Angeles,NA,Happy Isles Loop Road,NA,95389,NA,NA,NA,NA,NA,NA,NA,NA,NA,NA,NA,NA,NA,NA,NA,"Lower Pines Campground, Happy Isles Loop Road, Curry Village, Mariposa County, CA 95389, United States of America",NA,NA,NA,NA,NA,NA,NA,NA
e945bb0d4a4020c6,NA,us.ca_e945bb,-118.9522,36.74538,2204,US,CA,Fresno,America/Los_Angeles,NA,Round Meadow Trail,NA,93633,NA,NA,NA,NA,NA,NA,NA,NA,NA,NA,NA,NA,NA,NA,NA,"Round Meadow Trail, Fresno County, CA 93633, United States of America",NA,NA,NA,NA,NA,NA,NA,NA
3ebb4cea3d80b6bf,NA,us.ca_3ebb4c,-122.4924,40.27943,194,US,CA,NA,America/Los_Angeles,14800,Bowman Road,NA,96022,NA,NA,NA,NA,NA,NA,NA,NA,NA,NA,NA,NA,NA,NA,NA,"Baker CAL FIRE, 14800 Bowman Road, CA 96022, United States of America",NA,NA,NA,NA,NA,NA,NA,NA
e5a881a333fafe8c,NA,us.id_e5a881,-116.1298,47.53427,774,US,ID,Shoshone,America/Los_Angeles,NA,unnamed road,Kellogg,83837,NA,NA,NA,NA,NA,NA,NA,NA,NA,NA,NA,NA,NA,NA,NA,"unnamed road, Kellogg, ID 83837, United States of America",NA,NA,NA,NA,NA,NA,NA,NA
dec66d29e157f0e3,NA,us.id_dec66d,-116.2469,43.61805,828,US,ID,Ada,America/Boise,NA,Boise Connector,Boise,83788,NA,NA,NA,NA,NA,NA,NA,NA,NA,NA,NA,NA,NA,NA,NA,"Boise Connector, Boise, ID 83788, United States of America",NA,NA,NA,NA,NA,NA,NA,NA
727c0111250b0185,NA,us.ca_727c01,-120.6594,40.4318,1310,US,CA,Lassen,America/Los_Angeles,1079,Ashley Way,Susanville,96130,NA,NA,NA,NA,NA,NA,NA,NA,NA,NA,NA,NA,NA,NA,NA,"1079 Ashley Way, Susanville, CA 96130, United States of America",NA,NA,NA,NA,NA,NA,NA,NA
33a0a20175d56f5a,NA,us.id_33a0a2,-112.0646,43.50525,1452,US,ID,Bonneville,America/Boise,1037,Norton Avenue,Idaho Falls,83402,NA,NA,NA,NA,NA,NA,NA,NA,NA,NA,NA,NA,NA,NA,NA,"1037 Norton Avenue, Idaho Falls, ID 83402, United States of America",NA,NA,NA,NA,NA,NA,NA,NA
fe39cb0f2978a1cc,NA,us.ca_fe39cb,-120.136,39.79673,1530,US,CA,Plumas,America/Los_Angeles,94296,Feather River Highway,NA,96105,NA,NA,NA,NA,NA,NA,NA,NA,NA,NA,NA,NA,NA,NA,NA,"94296 Feather River Highway, Chilcoot, Plumas County, CA 96105, United States of America",NA,NA,NA,NA,NA,NA,NA,NA
d3c13104c9de5853,NA,us.ca_d3c131,-122.1163,41.24794,1005,US,CA,Siskiyou,America/Los_Angeles,NA,Mount Shasta - Mount Lassen Highway,NA,96057,NA,NA,NA,NA,NA,NA,NA,NA,NA,NA,NA,NA,NA,NA,NA,"Mount Shasta - Mount Lassen Highway, McCloud, Siskiyou County, CA 96057, United States of America",NA,NA,NA,NA,NA,NA,NA,NA
52c1d0e4bb41a43b,NA,us.ca_52c1d0,-123.5243,41.28883,540,US,CA,Humboldt,America/Los_Angeles,NA,Ferris Ranch Road,NA,95556,NA,NA,NA,NA,NA,NA,NA,NA,NA,NA,NA,NA,NA,NA,NA,"Ferris Ranch Road, Orleans, Humboldt County, CA 95556, United States of America",NA,NA,NA,NA,NA,NA,NA,NA
e33004ff6e910e4b,NA,us.ca_e33004,-122.3856,40.89008,344,US,CA,Shasta,America/Los_Angeles,20898,Mammoth Drive,NA,96051,NA,NA,NA,NA,NA,NA,NA,NA,NA,NA,NA,NA,NA,NA,NA,"20898 Mammoth Drive, Shasta County, CA 96051, United States of America",NA,NA,NA,NA,NA,NA,NA,NA
9015e1e6cd88cd66,NA,us.ca_9015e1,-123.7595,39.26375,166,US,CA,Mendocino,America/Los_Angeles,NA,Huckelberry Lane,NA,95456,NA,NA,NA,NA,NA,NA,NA,NA,NA,NA,NA,NA,NA,NA,NA,"Little River Airport, Huckelberry Lane, Mendocino County, CA 95456, United States of America",NA,NA,NA,NA,NA,NA,NA,NA
f413ec4c252f6414,NA,us.ca_f413ec,-123.3216,39.34893,565,US,CA,Mendocino,America/Los_Angeles,NA,Redwood Highway,NA,NA,NA,NA,NA,NA,NA,NA,NA,NA,NA,NA,NA,NA,NA,NA,NA,"Howard Forest Shop 2, Redwood Highway, Ridge, Mendocino County, CA, United States of America",NA,NA,NA,NA,NA,NA,NA,NA
214c36b78bd6d28b,NA,us.ca_214c36,-121.2848,39.45704,639,US,CA,Yuba,America/Los_Angeles,NA,La Porte Road,NA,95919,NA,NA,NA,NA,NA,NA,NA,NA,NA,NA,NA,NA,NA,NA,NA,"La Porte Road, Brownsville, Yuba County, CA 95919, United States of America",NA,NA,NA,NA,NA,NA,NA,NA
46d469466ab7bdd5,NA,us.ca_46d469,-121.4439,38.42031,7,US,CA,Sacramento,America/Los_Angeles,5203,Laguna Woods Drive,Elk Grove,95758,NA,NA,NA,NA,NA,NA,NA,NA,NA,NA,NA,NA,NA,NA,NA,"5203 Laguna Woods Drive, Elk Grove, CA 95758, United States of America",NA,NA,NA,NA,NA,NA,NA,NA
bbfff2b951affbc6,NA,us.ca_bbfff2,-120.5843,38.74707,1114,US,CA,El Dorado,America/Los_Angeles,NA,Spirit Lane,NA,95726,NA,NA,NA,NA,NA,NA,NA,NA,NA,NA,NA,NA,NA,NA,NA,"Spirit Lane, Pollock Pines, El Dorado County, CA 95726, United States of America",NA,NA,NA,NA,NA,NA,NA,NA
b5a4ea3c76fb914a,NA,us.ca_b5a4ea,-121.9276,40.3325,561,US,CA,NA,America/Los_Angeles,29518,State Highway 36,NA,96075,NA,NA,NA,NA,NA,NA,NA,NA,NA,NA,NA,NA,NA,NA,NA,"29518 State Highway 36, Paynes Creek, CA 96075, United States of America",NA,NA,NA,NA,NA,NA,NA,NA
4528ceb0c6928c07,NA,us.ca_4528ce,-116.8965,34.23667,2127,US,CA,San Bernardino,America/Los_Angeles,959,Oriole Drive,Big Bear Lake,92315,NA,NA,NA,NA,NA,NA,NA,NA,NA,NA,NA,NA,NA,NA,NA,"959 Oriole Drive, Big Bear Lake, CA 92315, United States of America",NA,NA,NA,NA,NA,NA,NA,NA
6954a565915d283b,NA,us.ca_6954a5,-119.7807,34.44288,31,US,CA,Santa Barbara,America/Los_Angeles,NA,Calle Real,Santa Barbara,93110,NA,NA,NA,NA,NA,NA,NA,NA,NA,NA,NA,NA,NA,NA,NA,"ChargePoint, Calle Real, Santa Barbara, CA 93110, United States of America",NA,NA,NA,NA,NA,NA,NA,NA
dcc2df2d3e2a7f91,NA,us.ca_dcc2df,-119.6915,34.94423,653,US,CA,Santa Barbara,America/Los_Angeles,NA,unnamed road,NA,NA,NA,NA,NA,NA,NA,NA,NA,NA,NA,NA,NA,NA,NA,NA,NA,"unnamed road, New Cuyama, Santa Barbara County, CA, United States of America",NA,NA,NA,NA,NA,NA,NA,NA
2906326a02ecdcac,NA,us.ca_290632,-119.1043,36.41447,134,US,CA,Tulare,America/Los_Angeles,139,North Walnut Street,NA,93286,NA,NA,NA,NA,NA,NA,NA,NA,NA,NA,NA,NA,NA,NA,NA,"139 North Walnut Street, Woodlake, Tulare County, CA 93286, United States of America",NA,NA,NA,NA,NA,NA,NA,NA
eba9a2239e0fcc01,NA,us.ca_eba9a2,-120.4269,34.91164,82,US,CA,Santa Barbara,America/Los_Angeles,2637,Long Terrace,Santa Maria,93455,NA,NA,NA,NA,NA,NA,NA,NA,NA,NA,NA,NA,NA,NA,NA,"2637 Long Terrace, Santa Maria, CA 93455, United States of America",NA,NA,NA,NA,NA,NA,NA,NA
d7cadfcb7d5420e0,NA,us.ca_d7cadf,-119.1652,36.75719,561,US,CA,Fresno,America/Los_Angeles,NA,East Kings Canyon Road,NA,93621,NA,NA,NA,NA,NA,NA,NA,NA,NA,NA,NA,NA,NA,NA,NA,"Ranger Station, East Kings Canyon Road, Fresno County, CA 93621, United States of America",NA,NA,NA,NA,NA,NA,NA,NA
5ce4c94b64aa69ec,NA,us.nm_5ce4c9,-108.238,32.77483,1818,US,NM,Grant,America/Denver,59,Pinon Lane,NA,88061,NA,NA,NA,NA,NA,NA,NA,NA,NA,NA,NA,NA,NA,NA,NA,"59 Pinon Lane, Grant County, NM 88061, United States of America",NA,NA,NA,NA,NA,NA,NA,NA
3a8ba19b57a4c227,NA,us.nm_3a8ba1,-107.7093,32.91698,1904,US,NM,Sierra,America/Denver,41,Main Street,NA,88042,NA,NA,NA,NA,NA,NA,NA,NA,NA,NA,NA,NA,NA,NA,NA,"41 Main Street, Kingston, Sierra County, NM 88042, United States of America",NA,NA,NA,NA,NA,NA,NA,NA
9828a5225d9656bc,NA,us.nm_9828a5,-106.8932,34.04668,1415,US,NM,Socorro,America/Denver,901,B Avenue,Socorro,87801,NA,NA,NA,NA,NA,NA,NA,NA,NA,NA,NA,NA,NA,NA,NA,"Bureau of Land Management - Socorro Field Office, 901 B Avenue, Socorro, NM 87801, United States of America",NA,NA,NA,NA,NA,NA,NA,NA
62362f964018d9c4,NA,us.nm_62362f,-106.8851,34.0467,1400,US,NM,Socorro,America/Denver,1035,Cuba Road,Socorro,87801,NA,NA,NA,NA,NA,NA,NA,NA,NA,NA,NA,NA,NA,NA,NA,"1035 Cuba Road, Socorro, NM 87801, United States of America",NA,NA,NA,NA,NA,NA,NA,NA
e5a07194aa786a76,NA,us.nm_e5a071,-106.9114,34.04372,1450,US,NM,Socorro,America/Denver,NA,Grant Street,Socorro,87802,NA,NA,NA,NA,NA,NA,NA,NA,NA,NA,NA,NA,NA,NA,NA,"KSRC-AM (Socorro), Grant Street, Socorro, NM 87802, United States of America",NA,NA,NA,NA,NA,NA,NA,NA
76f160e09b0fd316,NA,us.nm_76f160,-108.0145,32.93248,1909,US,NM,Grant,America/Denver,NA,Forest Service Road 4204 T,NA,88049,NA,NA,NA,NA,NA,NA,NA,NA,NA,NA,NA,NA,NA,NA,NA,"Forest Service Road 4204 T, Grant County, NM 88049, United States of America",NA,NA,NA,NA,NA,NA,NA,NA
9b0af9282f8477fa,NA,us.az_9b0af9,-112.0322,33.46708,342,US,AZ,Maricopa,America/Phoenix,2311,East Palm Lane,Phoenix,85006,NA,NA,NA,NA,NA,NA,NA,NA,NA,NA,NA,NA,NA,NA,NA,"St. Agnes Catholic School, 2311 East Palm Lane, Phoenix, AZ 85006, United States of America",NA,NA,NA,NA,NA,NA,NA,NA
0ffbb905303b24a9,NA,us.az_0ffbb9,-111.5035,34.40673,1782,US,AZ,Gila,America/Phoenix,8475,Fossil Creek Road 708,NA,85544,NA,NA,NA,NA,NA,NA,NA,NA,NA,NA,NA,NA,NA,NA,NA,"8475 Fossil Creek Road 708, Strawberry, Gila County, AZ 85544, United States of America",NA,NA,NA,NA,NA,NA,NA,NA
c45e4b050f558419,NA,us.nm_c45e4b,-107.9027,33.56226,2244,US,NM,Catron,America/Denver,NA,unnamed road,NA,NA,NA,NA,NA,NA,NA,NA,NA,NA,NA,NA,NA,NA,NA,NA,NA,"unnamed road, Catron County, NM, United States of America",NA,NA,NA,NA,NA,NA,NA,NA
5eb6d4a832fe4b99,NA,us.nm_5eb6d4,-108.5008,34.34558,2092,US,NM,Catron,America/Denver,NA,Candelaria Street,NA,87829-0039,NA,NA,NA,NA,NA,NA,NA,NA,NA,NA,NA,NA,NA,NA,NA,"Candelaria Street, Quemado, Catron County, NM 87829-0039, United States of America",NA,NA,NA,NA,NA,NA,NA,NA
45d644952446decc,NA,us.nm_45d644,-107.8109,33.46681,2237,US,NM,Sierra,America/Denver,NA,NM 59,NA,NA,NA,NA,NA,NA,NA,NA,NA,NA,NA,NA,NA,NA,NA,NA,NA,"Kline Ranch, NM 59, Sierra County, NM, United States of America",NA,NA,NA,NA,NA,NA,NA,NA
db3d554195b41332,NA,us.ca_db3d55,-123.3768,41.80847,462,US,CA,Siskiyou,America/Los_Angeles,NA,unnamed road,NA,NA,NA,NA,NA,NA,NA,NA,NA,NA,NA,NA,NA,NA,NA,NA,NA,"unnamed road, Happy Camp, Siskiyou County, CA, United States of America",NA,NA,NA,NA,NA,NA,NA,NA
e411430f5eb24b81,NA,us.ca_e41143,-124.202,40.7106,149,US,CA,Humboldt,America/Los_Angeles,NA,Humboldt Hill Road,Eureka,95537,NA,NA,NA,NA,NA,NA,NA,NA,NA,NA,NA,NA,NA,NA,NA,"Humboldt Hill Road, Humboldt Hill, Eureka, CA 95537, United States of America",NA,NA,NA,NA,NA,NA,NA,NA
596a1273cc827708,NA,us.ca_596a12,-123.7945,40.09119,114,US,CA,Humboldt,America/Los_Angeles,NA,Sprowel Creek Road,NA,95542-3140,NA,NA,NA,NA,NA,NA,NA,NA,NA,NA,NA,NA,NA,NA,NA,"Sprowel Creek Road, Garberville, Humboldt County, CA 95542-3140, United States of America",NA,NA,NA,NA,NA,NA,NA,NA
a96e5a7f6ad425ee,NA,us.ca_a96e5a,-118.9212,36.41763,250,US,CA,Tulare,America/Los_Angeles,40260,Pierce Drive,NA,93271,NA,NA,NA,NA,NA,NA,NA,NA,NA,NA,NA,NA,NA,NA,NA,"40260 Pierce Drive, Three Rivers, Tulare County, CA 93271, United States of America",NA,NA,NA,NA,NA,NA,NA,NA
61073627746ba3e4,NA,us.ca_610736,-118.7778,36.56614,1920,US,CA,Tulare,America/Los_Angeles,NA,Beetle Rock Trail,NA,NA,NA,NA,NA,NA,NA,NA,NA,NA,NA,NA,NA,NA,NA,NA,NA,"Beetle Rock Trail, Pinewood, Tulare County, CA, United States of America",NA,NA,NA,NA,NA,NA,NA,NA
660856b42061f0ae,NA,us.ca_660856,-122.0533,39.93427,64,US,CA,NA,America/Los_Angeles,NA,D Street,NA,96092,NA,NA,NA,NA,NA,NA,NA,NA,NA,NA,NA,NA,NA,NA,NA,"Vina Elementary School, D Street, Vina, CA 96092, United States of America",NA,NA,NA,NA,NA,NA,NA,NA
4c572c8d9d7f0713,NA,us.ca_4c572c,-122.5436,38.79499,339,US,CA,Lake,America/Los_Angeles,19767,Donkey Hill Road,NA,95467,NA,NA,NA,NA,NA,NA,NA,NA,NA,NA,NA,NA,NA,NA,NA,"19767 Donkey Hill Road, Lake County, CA 95467, United States of America",NA,NA,NA,NA,NA,NA,NA,NA
3edb0b272dd6b9c4,NA,us.id_3edb0b,-116.9895,46.65524,920,US,ID,Latah,America/Los_Angeles,NA,Eid Road,NA,NA,NA,NA,NA,NA,NA,NA,NA,NA,NA,NA,NA,NA,NA,NA,NA,"Eid Road, Latah County, ID, United States of America",NA,NA,NA,NA,NA,NA,NA,NA
d5ca45d185aa7251,NA,us.ca_d5ca45,-122.2275,40.73637,319,US,CA,Shasta,America/Los_Angeles,NA,Jones Valley Road,NA,NA,NA,NA,NA,NA,NA,NA,NA,NA,NA,NA,NA,NA,NA,NA,NA,"Jones Valley Road, Shasta County, CA, United States of America",NA,NA,NA,NA,NA,NA,NA,NA
0b7a894665b832f9,NA,us.ca_0b7a89,-122.5434,40.50521,339,US,CA,Shasta,America/Los_Angeles,NA,South Fork Road,NA,NA,NA,NA,NA,NA,NA,NA,NA,NA,NA,NA,NA,NA,NA,NA,NA,"Igo Inn, South Fork Road, Igo, Shasta County, CA, United States of America",NA,NA,NA,NA,NA,NA,NA,NA
7a11ce11be5d78e5,NA,us.ca_7a11ce,-116.7389,33.73424,1557,US,CA,Riverside,America/Los_Angeles,NA,Idyllmont Road,NA,92549,NA,NA,NA,NA,NA,NA,NA,NA,NA,NA,NA,NA,NA,NA,NA,"Idyllwild Arts Academy, Idyllmont Road, Idyllwild-Pine Cove, Riverside County, CA 92549, United States of America",NA,NA,NA,NA,NA,NA,NA,NA
2649cd0ac123b26b,NA,us.ca_2649cd,-116.7327,33.74931,1739,US,CA,Riverside,America/Los_Angeles,NA,Banning-Idyllwild Panoramic Highway,NA,92549,NA,NA,NA,NA,NA,NA,NA,NA,NA,NA,NA,NA,NA,NA,NA,"Buckhorn Camp, Banning-Idyllwild Panoramic Highway, Idyllwild-Pine Cove, Riverside County, CA 92549, United States of America",NA,NA,NA,NA,NA,NA,NA,NA
bc4c7541468b94f5,NA,us.ca_bc4c75,-120.6509,40.4196,1278,US,CA,Lassen,America/Los_Angeles,399,Cedar Street,Susanville,96130,NA,NA,NA,NA,NA,NA,NA,NA,NA,NA,NA,NA,NA,NA,NA,"399 Cedar Street, Susanville, CA 96130, United States of America",NA,NA,NA,NA,NA,NA,NA,NA
801b5d16ef79a033,NA,us.ca_801b5d,-117.8294,34.00169,222,US,CA,Los Angeles,America/Los_Angeles,NA,Golden Springs Drive,Diamond Bar,91789-3924,NA,NA,NA,NA,NA,NA,NA,NA,NA,NA,NA,NA,NA,NA,NA,"South Coast Air Quality Management, Golden Springs Drive, Diamond Bar, CA 91789-3924, United States of America",NA,NA,NA,NA,NA,NA,NA,NA
101ca4b4d4902eb1,NA,us.ca_101ca4,-117.025,34.89377,696,US,CA,San Bernardino,America/Los_Angeles,NA,Mountain View Street,Barstow,92311,NA,NA,NA,NA,NA,NA,NA,NA,NA,NA,NA,NA,NA,NA,NA,"San Bernardino County Sheriff, Mountain View Street, Barstow, CA 92311, United States of America",NA,NA,NA,NA,NA,NA,NA,NA
31c15998665b81ef,NA,us.ca_31c159,-122.8688,38.6109,33,US,CA,Sonoma,America/Los_Angeles,133,Matheson Street,Healdsburg,95448,NA,NA,NA,NA,NA,NA,NA,NA,NA,NA,NA,NA,NA,NA,NA,"133 Matheson Street, Healdsburg, CA 95448, United States of America",NA,NA,NA,NA,NA,NA,NA,NA
36faf0f770887a51,NA,us.ca_36faf0,-120.8413,40.07678,1079,US,CA,Plumas,America/Los_Angeles,NA,Nelson Street,NA,95983,NA,NA,NA,NA,NA,NA,NA,NA,NA,NA,NA,NA,NA,NA,NA,"Nelson Street, Taylorsville, Plumas County, CA 95983, United States of America",NA,NA,NA,NA,NA,NA,NA,NA
487f6c8791feb2ba,NA,us.ca_487f6c,-121.5004,38.55026,4,US,CA,Sacramento,America/Los_Angeles,1391,Perkins Way,Sacramento,95818,NA,NA,NA,NA,NA,NA,NA,NA,NA,NA,NA,NA,NA,NA,NA,"1391 Perkins Way, Sacramento, CA 95818, United States of America",NA,NA,NA,NA,NA,NA,NA,NA
b6abc068712f231d,NA,us.ca_b6abc0,-122.2034,40.24707,81,US,CA,NA,America/Los_Angeles,NA,China Rapids Drive,NA,NA,NA,NA,NA,NA,NA,NA,NA,NA,NA,NA,NA,NA,NA,NA,NA,"China Rapids Drive, CA, United States of America",NA,NA,NA,NA,NA,NA,NA,NA
6b0d2e34f53dc696,NA,us.ca_6b0d2e,-120.5288,35.52719,358,US,CA,San Luis Obispo,America/Los_Angeles,NA,Fox Hollow Road,NA,NA,NA,NA,NA,NA,NA,NA,NA,NA,NA,NA,NA,NA,NA,NA,NA,"Fox Hollow Road, Creston, San Luis Obispo County, CA, United States of America",NA,NA,NA,NA,NA,NA,NA,NA
cceb07983bbe50e6,NA,us.ca_cceb07,-122.743,38.95368,565,US,CA,Lake,America/Los_Angeles,NA,Ponca Way,NA,NA,NA,NA,NA,NA,NA,NA,NA,NA,NA,NA,NA,NA,NA,NA,NA,"Ponca Way, Lake County, CA, United States of America",NA,NA,NA,NA,NA,NA,NA,NA
2f6580007dd1d78c,NA,us.ca_2f6580,-123.1727,38.81619,326,NA,NA,NA,NA,NA,NA,NA,NA,NA,NA,NA,NA,NA,NA,NA,NA,NA,NA,NA,NA,NA,NA,NA,NA,NA,NA,NA,NA,NA,NA,NA,NA
e136f19e20e6f73d,NA,us.ca_e136f1,-119.7229,36.98848,107,US,CA,Madera,America/Los_Angeles,NA,Bureau,NA,93626,NA,NA,NA,NA,NA,NA,NA,NA,NA,NA,NA,NA,NA,NA,NA,"Bureau, Madera County, CA 93626, United States of America",NA,NA,NA,NA,NA,NA,NA,NA
920094bdd413e8f6,NA,us.ca_920094,-122.204,39.74633,79,US,CA,Glenn,America/Los_Angeles,1053,Cortina Court,Orland,95963,NA,NA,NA,NA,NA,NA,NA,NA,NA,NA,NA,NA,NA,NA,NA,"1053 Cortina Court, Orland, CA 95963, United States of America",NA,NA,NA,NA,NA,NA,NA,NA
3b84a91d01357f5f,NA,us.ca_3b84a9,-120.9434,38.67387,462,US,CA,El Dorado,America/Los_Angeles,NA,Ponderosa Road,NA,95682,NA,NA,NA,NA,NA,NA,NA,NA,NA,NA,NA,NA,NA,NA,NA,"Ponderosa High School, Ponderosa Road, Mariemont, El Dorado County, CA 95682, United States of America",NA,NA,NA,NA,NA,NA,NA,NA
6fd7979791de24a8,NA,us.ca_6fd797,-121.0305,38.87251,426,US,CA,El Dorado,America/Los_Angeles,NA,Knickerbocker Creek Trail,NA,95614,NA,NA,NA,NA,NA,NA,NA,NA,NA,NA,NA,NA,NA,NA,NA,"Knickerbocker Creek Trail, Cool, El Dorado County, CA 95614, United States of America",NA,NA,NA,NA,NA,NA,NA,NA
6ed3600add13f21c,NA,us.ca_6ed360,-120.2801,34.74137,175,US,CA,Santa Barbara,America/Los_Angeles,385,Shaw Street,NA,93440,NA,NA,NA,NA,NA,NA,NA,NA,NA,NA,NA,NA,NA,NA,NA,"385 Shaw Street, Los Alamos, Santa Barbara County, CA 93440, United States of America",NA,NA,NA,NA,NA,NA,NA,NA
8e14620ab12c84a2,NA,us.ca_8e1462,-122.2371,40.74742,353,US,CA,Shasta,America/Los_Angeles,7201,Fir Court,NA,96003,NA,NA,NA,NA,NA,NA,NA,NA,NA,NA,NA,NA,NA,NA,NA,"7201 Fir Court, Shasta County, CA 96003, United States of America",NA,NA,NA,NA,NA,NA,NA,NA
f1d4751a5b85f13d,NA,us.ca_f1d475,-121.614,39.73697,465,US,CA,Butte,America/Los_Angeles,834,Palmer Hill Road,Paradise,95969,NA,NA,NA,NA,NA,NA,NA,NA,NA,NA,NA,NA,NA,NA,NA,"834 Palmer Hill Road, Paradise, CA 95969, United States of America",NA,NA,NA,NA,NA,NA,NA,NA
a1624c205c6d3a1c,NA,us.ca_a1624c,-122.4306,37.45205,28,US,CA,San Mateo,America/Los_Angeles,NA,Cabrillo Highway South,Half Moon Bay,94019,NA,NA,NA,NA,NA,NA,NA,NA,NA,NA,NA,NA,NA,NA,NA,"Cabrillo Highway South, Half Moon Bay, CA 94019, United States of America",NA,NA,NA,NA,NA,NA,NA,NA
dabb036be4f1bb93,NA,us.ca_dabb03,-123.7947,40.47423,220,US,CA,Humboldt,America/Los_Angeles,NA,Kneeland Road,NA,NA,NA,NA,NA,NA,NA,NA,NA,NA,NA,NA,NA,NA,NA,NA,NA,"Kneeland Road, Yager Junction, Humboldt County, CA, United States of America",NA,NA,NA,NA,NA,NA,NA,NA
5a2e8df4e76703c1,NA,us.ca_5a2e8d,-123.1482,41.14154,692,US,CA,Siskiyou,America/Los_Angeles,30396,Cecilville Road,NA,96031,NA,NA,NA,NA,NA,NA,NA,NA,NA,NA,NA,NA,NA,NA,NA,"30396 Cecilville Road, Cecilville, Siskiyou County, CA 96031, United States of America",NA,NA,NA,NA,NA,NA,NA,NA
d45e058eed938a64,NA,us.ca_d45e05,-119.9495,37.46228,535,US,CA,Mariposa,America/Los_Angeles,NA,Mormom Bar Crossing,NA,95338,NA,NA,NA,NA,NA,NA,NA,NA,NA,NA,NA,NA,NA,NA,NA,"Mormom Bar Crossing, Mormon Bar, Mariposa County, CA 95338, United States of America",NA,NA,NA,NA,NA,NA,NA,NA
8b024aed29c02923,NA,us.ca_8b024a,-119.0732,36.21223,120,US,CA,Tulare,America/Los_Angeles,1701,East Tulare Road,Lindsay,93247,NA,NA,NA,NA,NA,NA,NA,NA,NA,NA,NA,NA,NA,NA,NA,"Kennedy Elementary School, 1701 East Tulare Road, Lindsay, CA 93247, United States of America",NA,NA,NA,NA,NA,NA,NA,NA
ff2cf54775818626,NA,us.wa_ff2cf5,-117.273,47.67072,610,US,WA,Spokane,America/Los_Angeles,1498,North Sunderland Road,Spokane Valley,99206,NA,NA,NA,NA,NA,NA,NA,NA,NA,NA,NA,NA,NA,NA,NA,"1498 North Sunderland Road, Spokane Valley, WA 99206, United States of America",NA,NA,NA,NA,NA,NA,NA,NA
002331c1be72bcb4,NA,us.nm_002331,-108.1378,33.02081,1917,US,NM,Grant,America/Denver,NA,FR 4206 L,NA,NA,NA,NA,NA,NA,NA,NA,NA,NA,NA,NA,NA,NA,NA,NA,NA,"FR 4206 L, Grant County, NM, United States of America",NA,NA,NA,NA,NA,NA,NA,NA
9f4a481201284469,NA,us.nm_9f4a48,-108.6028,32.96782,1394,US,NM,Grant,America/Denver,12,Mesa Road,NA,88028,NA,NA,NA,NA,NA,NA,NA,NA,NA,NA,NA,NA,NA,NA,NA,"12 Mesa Road, Grant County, NM 88028, United States of America",NA,NA,NA,NA,NA,NA,NA,NA
5e8864a362b67172,NA,us.nm_5e8864,-108.5963,32.96033,1369,US,NM,Grant,America/Denver,NA,River Road,NA,88038,NA,NA,NA,NA,NA,NA,NA,NA,NA,NA,NA,NA,NA,NA,NA,"River Road, Gila, Grant County, NM 88038, United States of America",NA,NA,NA,NA,NA,NA,NA,NA
28e4838f92e1b3c2,NA,us.nm_28e483,-108.5962,32.96485,1370,US,NM,Grant,America/Denver,NA,NM 211,NA,88028,NA,NA,NA,NA,NA,NA,NA,NA,NA,NA,NA,NA,NA,NA,NA,"NM 211, Cliff, Grant County, NM 88028, United States of America",NA,NA,NA,NA,NA,NA,NA,NA
d94383652cc37d1d,NA,us.az_d94383,-111.7649,34.77972,1243,US,AZ,Yavapai,America/Phoenix,NA,West Cortez Drive,NA,86351,NA,NA,NA,NA,NA,NA,NA,NA,NA,NA,NA,NA,NA,NA,NA,"Sedona Fire District Station #3 Village of Oak Creek, West Cortez Drive, Big Park, AZ 86351, United States of America",NA,NA,NA,NA,NA,NA,NA,NA
f2f8733544e93996,NA,us.az_f2f873,-111.7876,34.7907,1293,US,AZ,Yavapai,America/Phoenix,NA,Soldiers Basin Drive,NA,86351,NA,NA,NA,NA,NA,NA,NA,NA,NA,NA,NA,NA,NA,NA,NA,"Soldiers Basin Drive, Big Park, AZ 86351, United States of America",NA,NA,NA,NA,NA,NA,NA,NA
3f80011167c05b2b,NA,us.az_3f8001,-111.7795,33.38753,378,US,AZ,Maricopa,America/Phoenix,1598,South Gaylord,Mesa,85204,NA,NA,NA,NA,NA,NA,NA,NA,NA,NA,NA,NA,NA,NA,NA,"1598 South Gaylord, Mesa, AZ 85204, United States of America",NA,NA,NA,NA,NA,NA,NA,NA
735226aa37f2c4ba,NA,us.az_735226,-110.9114,32.48359,940,US,AZ,Pima,America/Phoenix,NA,East White Hill Way,NA,85739,NA,NA,NA,NA,NA,NA,NA,NA,NA,NA,NA,NA,NA,NA,NA,"East White Hill Way, Pima County, AZ 85739, United States of America",NA,NA,NA,NA,NA,NA,NA,NA
55056b102ccc423f,NA,us.az_55056b,-110.4573,33.37277,864,US,AZ,Gila,America/Phoenix,NA,Tonto Street,San Carlos,85550,NA,NA,NA,NA,NA,NA,NA,NA,NA,NA,NA,NA,NA,NA,NA,"Tonto Street, San Carlos, AZ 85550, United States of America",NA,NA,NA,NA,NA,NA,NA,NA
d60fcf9636188acd,NA,us.az_d60fcf,-111.0029,33.60331,696,US,AZ,Gila,America/Phoenix,NA,Capel Drive,NA,NA,NA,NA,NA,NA,NA,NA,NA,NA,NA,NA,NA,NA,NA,NA,NA,"Capel Drive, Roosevelt Resort, Gila County, AZ, United States of America",NA,NA,NA,NA,NA,NA,NA,NA
b09562030998825e,NA,us.az_b09562,-112.0528,33.49171,342,US,AZ,Maricopa,America/Phoenix,1349,East Indianola Avenue,Phoenix,85014,NA,NA,NA,NA,NA,NA,NA,NA,NA,NA,NA,NA,NA,NA,NA,"1349 East Indianola Avenue, Phoenix, AZ 85014, United States of America",NA,NA,NA,NA,NA,NA,NA,NA
7b718b35ff5942b3,NA,us.az_7b718b,-111.3135,33.86811,740,US,AZ,Gila,America/Phoenix,654,Old State Route 188,NA,85553,NA,NA,NA,NA,NA,NA,NA,NA,NA,NA,NA,NA,NA,NA,NA,"654 Old State Route 188, Punkin Center, Gila County, AZ 85553, United States of America",NA,NA,NA,NA,NA,NA,NA,NA
60b896d69faffe74,NA,us.az_60b896,-110.764,32.61476,1359,US,AZ,Pinal,America/Phoenix,1470,Justice Drive,NA,82623,NA,NA,NA,NA,NA,NA,NA,NA,NA,NA,NA,NA,NA,NA,NA,"Pinal County Oracle Courthouse, 1470 Justice Drive, Oracle, Pinal County, AZ 82623, United States of America",NA,NA,NA,NA,NA,NA,NA,NA
7862ff5a153d391b,NA,us.az_7862ff,-109.1445,33.8577,2507,US,AZ,Apache,America/Phoenix,42595,Coronado Trail,Alpine,85920,NA,NA,NA,NA,NA,NA,NA,NA,NA,NA,NA,NA,NA,NA,NA,"42595 Coronado Trail, Alpine, AZ 85920, United States of America",NA,NA,NA,NA,NA,NA,NA,NA
b46c75f17b231c82,NA,us.az_b46c75,-109.1472,33.84893,2436,US,AZ,Apache,America/Phoenix,42634,Coronado Trail,Alpine,85920,NA,NA,NA,NA,NA,NA,NA,NA,NA,NA,NA,NA,NA,NA,NA,"Alpine Ranger District, Apache-Sitgreaves N. F., 42634 Coronado Trail, Alpine, AZ 85920, United States of America",NA,NA,NA,NA,NA,NA,NA,NA
75deec6ffe0b6bc0,NA,us.az_75deec,-110.4456,33.29379,792,US,AZ,Graham,America/Phoenix,NA,Rodeo Lane Road,NA,85542,NA,NA,NA,NA,NA,NA,NA,NA,NA,NA,NA,NA,NA,NA,NA,"Peridot Head Start, Rodeo Lane Road, Graham County, AZ 85542, United States of America",NA,NA,NA,NA,NA,NA,NA,NA
877cded2c57aec49,NA,us.nm_877cde,-108.7802,33.7159,1780,US,NM,Catron,America/Denver,NA,NM 12,NA,87830,NA,NA,NA,NA,NA,NA,NA,NA,NA,NA,NA,NA,NA,NA,NA,"NM 12, Reserve, Catron County, NM 87830, United States of America",NA,NA,NA,NA,NA,NA,NA,NA
b17090d9f5eb8c75,NA,us.az_b17090,-109.2291,32.94792,1106,US,AZ,Greenlee,America/Phoenix,NA,AZ 78,NA,85540,NA,NA,NA,NA,NA,NA,NA,NA,NA,NA,NA,NA,NA,NA,NA,"AZ 78, Three Way, Greenlee County, AZ 85540, United States of America",NA,NA,NA,NA,NA,NA,NA,NA
8806d98428017fac,NA,us.az_8806d9,-109.0943,33.63692,1781,US,AZ,Greenlee,America/Phoenix,NA,Blue River Road,NA,85922,NA,NA,NA,NA,NA,NA,NA,NA,NA,NA,NA,NA,NA,NA,NA,"Lazy YJ Ranch, Blue River Road, Greenlee County, AZ 85922, United States of America",NA,NA,NA,NA,NA,NA,NA,NA
94e2db1dadc65547,NA,us.nm_94e2db,-108.95,33.82239,2158,US,NM,Catron,America/Denver,NA,unnamed road,NA,87824,NA,NA,NA,NA,NA,NA,NA,NA,NA,NA,NA,NA,NA,NA,NA,"unnamed road, Luna, Catron County, NM 87824, United States of America",NA,NA,NA,NA,NA,NA,NA,NA
2cef5a5b0c36dd89,NA,us.ca_2cef5a,-122.3699,41.4213,1092,US,CA,Siskiyou,America/Los_Angeles,NA,unnamed road,NA,96094-2404,NA,NA,NA,NA,NA,NA,NA,NA,NA,NA,NA,NA,NA,NA,NA,"unnamed road, Siskiyou County, CA 96094-2404, United States of America",NA,NA,NA,NA,NA,NA,NA,NA
968d44aed59bd0cb,NA,us.ca_968d44,-122.8465,41.61412,836,US,CA,Siskiyou,America/Los_Angeles,NA,Oak Mill Drive,NA,96032,NA,NA,NA,NA,NA,NA,NA,NA,NA,NA,NA,NA,NA,NA,NA,"Scott Valley Junior High School, Oak Mill Drive, Fort Jones, Siskiyou County, CA 96032, United States of America",NA,NA,NA,NA,NA,NA,NA,NA
cad03848fefb10a1,NA,us.ca_cad038,-122.8484,41.60522,832,US,CA,Siskiyou,America/Los_Angeles,NA,Mathews Street,NA,96032,NA,NA,NA,NA,NA,NA,NA,NA,NA,NA,NA,NA,NA,NA,NA,"Fort Jones Elementary School, Mathews Street, Fort Jones, Siskiyou County, CA 96032, United States of America",NA,NA,NA,NA,NA,NA,NA,NA
871768f76987f923,NA,us.ak_871768,-150.8081,60.53753,77,US,AK,Kenai Peninsula,America/Anchorage,35418,Sterling Highway,NA,99672,NA,NA,NA,NA,NA,NA,NA,NA,NA,NA,NA,NA,NA,NA,NA,"35418 Sterling Highway, Kenai Peninsula, AK 99672, United States of America",NA,NA,NA,NA,NA,NA,NA,NA
2838d47699bd3288,NA,us.ca_2838d4,-118.7421,37.56673,2110,US,CA,Mono,America/Los_Angeles,NA,South Landing Road,NA,NA,NA,NA,NA,NA,NA,NA,NA,NA,NA,NA,NA,NA,NA,NA,NA,"South Landing Road, Crowley Lake, Mono County, CA, United States of America",NA,NA,NA,NA,NA,NA,NA,NA
3283bd87dd53a2ad,NA,us.ca_3283bd,-122.8525,41.83931,601,US,CA,Siskiyou,America/Los_Angeles,896,National Forest Development Road 40S01,NA,96050,NA,NA,NA,NA,NA,NA,NA,NA,NA,NA,NA,NA,NA,NA,NA,"896 National Forest Development Road 40S01, Walker, Siskiyou County, CA 96050, United States of America",NA,NA,NA,NA,NA,NA,NA,NA
5b078ecaccb8a519,NA,us.ca_5b078e,-122.1723,40.55128,156,US,CA,Shasta,America/Los_Angeles,8570,Brookdale Road,NA,96062,NA,NA,NA,NA,NA,NA,NA,NA,NA,NA,NA,NA,NA,NA,NA,"Millville Elementary School, 8570 Brookdale Road, Millville, Shasta County, CA 96062, United States of America",NA,NA,NA,NA,NA,NA,NA,NA
4ee65cee199da8ae,NA,us.ca_4ee65c,-122.3373,40.70101,272,US,CA,Shasta,America/Los_Angeles,NA,Fish Hill Lane,NA,96019,NA,NA,NA,NA,NA,NA,NA,NA,NA,NA,NA,NA,NA,NA,NA,"Fish Hill Lane, Shasta County, CA 96019, United States of America",NA,NA,NA,NA,NA,NA,NA,NA
a566df63f73c8856,NA,us.ca_a566df,-118.062,34.0681,77,US,CA,Los Angeles,America/Los_Angeles,NA,Rio Hondo River Trail,El Monte,91770,NA,NA,NA,NA,NA,NA,NA,NA,NA,NA,NA,NA,NA,NA,NA,"Rio Hondo River Trail, El Monte, CA 91770, United States of America",NA,NA,NA,NA,NA,NA,NA,NA
439defae5ebb1add,NA,us.ca_439def,-122.4566,40.45698,260,US,CA,Shasta,America/Los_Angeles,NA,Heavenly Valley Lane,NA,NA,NA,NA,NA,NA,NA,NA,NA,NA,NA,NA,NA,NA,NA,NA,NA,"Heavenly Valley Lane, Shasta County, CA, United States of America",NA,NA,NA,NA,NA,NA,NA,NA
541825c878524851,NA,us.ca_541825,-122.2335,40.56909,151,US,CA,Shasta,America/Los_Angeles,NA,Deschutes Road,Palo Cedro,96073,NA,NA,NA,NA,NA,NA,NA,NA,NA,NA,NA,NA,NA,NA,NA,"Foothill Highschool, Deschutes Road, Palo Cedro, CA 96073, United States of America",NA,NA,NA,NA,NA,NA,NA,NA
559ee9c6a3edc088,NA,us.ca_559ee9,-121.7264,39.67469,106,US,CA,Butte,America/Los_Angeles,NA,Neal Road,NA,95967,NA,NA,NA,NA,NA,NA,NA,NA,NA,NA,NA,NA,NA,NA,NA,"Neal Road, Butte County, CA 95967, United States of America",NA,NA,NA,NA,NA,NA,NA,NA
5071eab04618bc8c,NA,us.ca_5071ea,-121.4639,38.55454,9,US,CA,Sacramento,America/Los_Angeles,3713,Sherman Way,Sacramento,95817,NA,NA,NA,NA,NA,NA,NA,NA,NA,NA,NA,NA,NA,NA,NA,"3713 Sherman Way, Sacramento, CA 95817, United States of America",NA,NA,NA,NA,NA,NA,NA,NA
36e2abf6d5716910,NA,us.ca_36e2ab,-120.1398,39.03763,2070,US,CA,El Dorado,America/Los_Angeles,NA,Meeks Creek North,NA,96142,NA,NA,NA,NA,NA,NA,NA,NA,NA,NA,NA,NA,NA,NA,NA,"Meeks Creek North, Meeks Bay, El Dorado County, CA 96142, United States of America",NA,NA,NA,NA,NA,NA,NA,NA
458bc0a0f6ae6d14,NA,us.ca_458bc0,-120.1248,39.03519,1902,US,CA,El Dorado,America/Los_Angeles,NA,Meeks Bay Beach Access,NA,96142,NA,NA,NA,NA,NA,NA,NA,NA,NA,NA,NA,NA,NA,NA,NA,"Meeks Bay Campground, Meeks Bay Beach Access, Meeks Bay, El Dorado County, CA 96142, United States of America",NA,NA,NA,NA,NA,NA,NA,NA
21fa3d838d6d02cc,NA,us.ca_21fa3d,-122.5611,41.91137,672,US,CA,Siskiyou,America/Los_Angeles,NA,Oregon Road,NA,NA,NA,NA,NA,NA,NA,NA,NA,NA,NA,NA,NA,NA,NA,NA,NA,"Hornbrook Elementary School, Oregon Road, Hornbrook, Siskiyou County, CA, United States of America",NA,NA,NA,NA,NA,NA,NA,NA
8443a5162c57912d,NA,us.ca_8443a5,-123.1186,38.97001,152,US,CA,Mendocino,America/Los_Angeles,99,Feliz Creek Road,NA,95449,NA,NA,NA,NA,NA,NA,NA,NA,NA,NA,NA,NA,NA,NA,NA,"99 Feliz Creek Road, Hopland, Mendocino County, CA 95449, United States of America",NA,NA,NA,NA,NA,NA,NA,NA
485471b80ec34cf0,NA,us.ca_485471,-122.1329,38.21146,7,US,CA,Solano,America/Los_Angeles,NA,Cordelia Road,Fairfield,94534,NA,NA,NA,NA,NA,NA,NA,NA,NA,NA,NA,NA,NA,NA,NA,"Cordelia, Cordelia Road, Cordelia Junction, Fairfield, CA 94534, United States of America",NA,NA,NA,NA,NA,NA,NA,NA
cf76e17b91dc45e2,NA,us.ca_cf76e1,-120.9075,36.37738,615,US,CA,San Benito,America/Los_Angeles,NA,Coalinga Road,NA,NA,NA,NA,NA,NA,NA,NA,NA,NA,NA,NA,NA,NA,NA,NA,NA,"Coalinga Road, San Benito County, CA, United States of America",NA,NA,NA,NA,NA,NA,NA,NA
ec82294ef3b7c4f4,NA,us.ca_ec8229,-120.5951,38.72512,1010,US,CA,El Dorado,America/Los_Angeles,NA,Steelhead Lane,NA,NA,NA,NA,NA,NA,NA,NA,NA,NA,NA,NA,NA,NA,NA,NA,NA,"Steelhead Lane, Sly Park, El Dorado County, CA, United States of America",NA,NA,NA,NA,NA,NA,NA,NA
1425ba1faf1b8dac,NA,us.ca_1425ba,-118.0493,34.07665,84,US,CA,Los Angeles,America/Los_Angeles,3830,Rockwell Avenue,El Monte,91731,NA,NA,NA,NA,NA,NA,NA,NA,NA,NA,NA,NA,NA,NA,NA,"3830 Rockwell Avenue, El Monte, CA 91731, United States of America",NA,NA,NA,NA,NA,NA,NA,NA
ecfe9103899fad07,NA,us.ca_ecfe91,-122.809,38.51284,34,US,CA,Sonoma,America/Los_Angeles,NA,Airport Boulevard,NA,95439,NA,NA,NA,NA,NA,NA,NA,NA,NA,NA,NA,NA,NA,NA,NA,"Long Term Lot A, Airport Boulevard, Sonoma County, CA 95439, United States of America",NA,NA,NA,NA,NA,NA,NA,NA
7f1120dd83681082,NA,us.nv_7f1120,-119.2585,40.77109,1190,US,NV,Pershing,America/Los_Angeles,NA,Old State Route 34,NA,89412,NA,NA,NA,NA,NA,NA,NA,NA,NA,NA,NA,NA,NA,NA,NA,"Old State Route 34, Pershing County, NV 89412, United States of America",NA,NA,NA,NA,NA,NA,NA,NA
638f7a5186a68d88,NA,us.ca_638f7a,-122.4789,38.50762,95,US,CA,Napa,America/Los_Angeles,1898,Granger Way,St. Helena,94574,NA,NA,NA,NA,NA,NA,NA,NA,NA,NA,NA,NA,NA,NA,NA,"1898 Granger Way, St. Helena, CA 94574, United States of America",NA,NA,NA,NA,NA,NA,NA,NA
472da95503a04393,NA,us.ca_472da9,-122.4811,40.54181,288,US,CA,Shasta,America/Los_Angeles,15634,Middletown Park Drive,NA,96001,NA,NA,NA,NA,NA,NA,NA,NA,NA,NA,NA,NA,NA,NA,NA,"15634 Middletown Park Drive, Shasta County, CA 96001, United States of America",NA,NA,NA,NA,NA,NA,NA,NA
fd04541bf8ad1f38,NA,us.ak_fd0454,-147.824,64.84543,132,US,AK,Fairbanks North Star,America/Anchorage,4021,Fahrenkamp Avenue,NA,99709,NA,NA,NA,NA,NA,NA,NA,NA,NA,NA,NA,NA,NA,NA,NA,"4021 Fahrenkamp Avenue, Fairbanks North Star, AK 99709, United States of America",NA,NA,NA,NA,NA,NA,NA,NA
77403bd4df33d995,NA,us.wa_77403b,-120.4947,46.5592,304,US,WA,Yakima,America/Los_Angeles,NA,Alder Street,Union Gap,98903-1613,NA,NA,NA,NA,NA,NA,NA,NA,NA,NA,NA,NA,NA,NA,NA,"Van Doren, Alder Street, Union Gap, WA 98903-1613, United States of America",NA,NA,NA,NA,NA,NA,NA,NA
60518de34d680da2,NA,us.ca_60518d,-122.5217,41.72852,781,US,CA,Siskiyou,America/Los_Angeles,NA,North 8th Street,NA,NA,NA,NA,NA,NA,NA,NA,NA,NA,NA,NA,NA,NA,NA,NA,NA,"Montague Elementary School, North 8th Street, Montague, Siskiyou County, CA, United States of America",NA,NA,NA,NA,NA,NA,NA,NA
49b41e14bc699049,NA,us.nm_49b41e,-108.1501,33.02805,1846,US,NM,Grant,America/Denver,NA,NM 35,NA,NA,NA,NA,NA,NA,NA,NA,NA,NA,NA,NA,NA,NA,NA,NA,NA,"Upper End Campground, NM 35, Grant County, NM, United States of America",NA,NA,NA,NA,NA,NA,NA,NA
6053d3f76029126c,NA,us.nm_6053d3,-108.1115,33.42354,2057,US,NM,Catron,America/Denver,NA,NM 61,NA,NA,NA,NA,NA,NA,NA,NA,NA,NA,NA,NA,NA,NA,NA,NA,NA,"Beaverhead Work Center, NM 61, Catron County, NM, United States of America",NA,NA,NA,NA,NA,NA,NA,NA
6d65c68b1eb3c39e,NA,us.nm_6d65c6,-108.1571,32.7898,1855,US,NM,Grant,America/Denver,NA,Old Highway 180 Trail,NA,88036,NA,NA,NA,NA,NA,NA,NA,NA,NA,NA,NA,NA,NA,NA,NA,"Old Highway 180 Trail, Fort Bayard, Grant County, NM 88036, United States of America",NA,NA,NA,NA,NA,NA,NA,NA
9f3205ca4f9deb18,NA,us.nm_9f3205,-108.0994,33.3896,2084,US,NM,Catron,America/Denver,NA,North Star Mesa Road,NA,NA,NA,NA,NA,NA,NA,NA,NA,NA,NA,NA,NA,NA,NA,NA,NA,"North Star Mesa Road, Catron County, NM, United States of America",NA,NA,NA,NA,NA,NA,NA,NA
8aa8e55680d20d78,NA,us.az_8aa8e5,-112.1043,34.30622,1129,US,AZ,Yavapai,America/Phoenix,16219,South Black Mountain Road,NA,86333,NA,NA,NA,NA,NA,NA,NA,NA,NA,NA,NA,NA,NA,NA,NA,"16219 South Black Mountain Road, Cordes Lakes, Yavapai County, AZ 86333, United States of America",NA,NA,NA,NA,NA,NA,NA,NA
921db0d81bd4e4a1,NA,us.az_921db0,-111.5642,35.22802,2071,US,AZ,Coconino,America/Phoenix,5600,East Commerce Avenue,Flagstaff,86004,NA,NA,NA,NA,NA,NA,NA,NA,NA,NA,NA,NA,NA,NA,NA,"5600 East Commerce Avenue, Flagstaff, AZ 86004, United States of America",NA,NA,NA,NA,NA,NA,NA,NA
072dd0696c4f1aaf,NA,us.az_072dd0,-112.1558,34.34712,1215,US,AZ,Yavapai,America/Phoenix,NA,unnamed road,NA,86333,NA,NA,NA,NA,NA,NA,NA,NA,NA,NA,NA,NA,NA,NA,NA,"unnamed road, Spring Valley, Yavapai County, AZ 86333, United States of America",NA,NA,NA,NA,NA,NA,NA,NA
f47adee109864615,NA,us.az_f47ade,-111.632,35.2137,2168,US,AZ,Coconino,America/Phoenix,2201,North Gemini Drive,Flagstaff,86001,NA,NA,NA,NA,NA,NA,NA,NA,NA,NA,NA,NA,NA,NA,NA,"NACET Accelerator, 2201 North Gemini Drive, Flagstaff, AZ 86001, United States of America",NA,NA,NA,NA,NA,NA,NA,NA
6199510161c057b2,NA,us.hi_619951,-156.0215,19.67875,17,US,HI,Hawaiʻi,Pacific/Honolulu,NA,Ala Mauka Makai,NA,96740,NA,NA,NA,NA,NA,NA,NA,NA,NA,NA,NA,NA,NA,NA,NA,"Hale Ho'okipa Visitor Contact Station, Ala Mauka Makai, Honokōhau, HI 96740, United States of America",NA,NA,NA,NA,NA,NA,NA,NA
e52b33bd67e3efc7,NA,us.ca_e52b33,-118.9039,36.67659,1708,US,CA,Tulare,America/Los_Angeles,NA,Big Springs Trail,NA,NA,NA,NA,NA,NA,NA,NA,NA,NA,NA,NA,NA,NA,NA,NA,NA,"Big Springs Trail, Tulare County, CA, United States of America",NA,NA,NA,NA,NA,NA,NA,NA
a0cffa3af3f607a3,NA,us.ca_a0cffa,-122.5972,39.07474,366,US,CA,Lake,America/Los_Angeles,3198,Tamarack Way,NA,95423,NA,NA,NA,NA,NA,NA,NA,NA,NA,NA,NA,NA,NA,NA,NA,"3198 Tamarack Way, Spring Valley, Lake County, CA 95423, United States of America",NA,NA,NA,NA,NA,NA,NA,NA
55d69f4fa464c439,NA,us.ca_55d69f,-122.7399,38.50034,55,US,CA,Sonoma,America/Los_Angeles,NA,Mark West Springs Road,NA,95403,NA,NA,NA,NA,NA,NA,NA,NA,NA,NA,NA,NA,NA,NA,NA,"John B Riebli Elementary School, Mark West Springs Road, Sonoma County, CA 95403, United States of America",NA,NA,NA,NA,NA,NA,NA,NA
6b4e09dc6f839d28,NA,us.ca_6b4e09,-122.5406,39.37296,359,US,CA,Colusa,America/Los_Angeles,NA,East Park Road,NA,95979,NA,NA,NA,NA,NA,NA,NA,NA,NA,NA,NA,NA,NA,NA,NA,"Stonyford Fire Department, East Park Road, Stonyford, Colusa County, CA 95979, United States of America",NA,NA,NA,NA,NA,NA,NA,NA
c7d3380d8967640b,NA,us.ca_c7d338,-122.408,40.44787,232,US,CA,Shasta,America/Los_Angeles,NA,Palm Avenue,NA,NA,NA,NA,NA,NA,NA,NA,NA,NA,NA,NA,NA,NA,NA,NA,NA,"Happy Valley Elementary School, Palm Avenue, Olinda, Shasta County, CA, United States of America",NA,NA,NA,NA,NA,NA,NA,NA
8a91b93f9a65c266,NA,us.ca_8a91b9,-119.849,37.44912,689,US,CA,Mariposa,America/Los_Angeles,NA,Woodland Drive,NA,NA,NA,NA,NA,NA,NA,NA,NA,NA,NA,NA,NA,NA,NA,NA,NA,"Woodland Drive, Mariposa County, CA, United States of America",NA,NA,NA,NA,NA,NA,NA,NA
9228be7057860fe7,NA,us.ca_9228be,-120.1343,39.06773,1920,US,CA,Placer,America/Los_Angeles,359,Tomahawk Street,NA,96142,NA,NA,NA,NA,NA,NA,NA,NA,NA,NA,NA,NA,NA,NA,NA,"359 Tomahawk Street, Tahoma, Placer County, CA 96142, United States of America",NA,NA,NA,NA,NA,NA,NA,NA
132563ec4f3a92c7,NA,us.ca_132563,-120.1485,39.07205,1930,US,CA,Placer,America/Los_Angeles,6245,Lark Drive,NA,96141,NA,NA,NA,NA,NA,NA,NA,NA,NA,NA,NA,NA,NA,NA,NA,"6245 Lark Drive, Tahoma, Placer County, CA 96141, United States of America",NA,NA,NA,NA,NA,NA,NA,NA
3e56cfdbb0105673,NA,us.ca_3e56cf,-120.1274,37.40845,315,US,CA,Mariposa,America/Los_Angeles,5013,Indian Gulch Road,NA,95306,NA,NA,NA,NA,NA,NA,NA,NA,NA,NA,NA,NA,NA,NA,NA,"5013 Indian Gulch Road, Mariposa County, CA 95306, United States of America",NA,NA,NA,NA,NA,NA,NA,NA
1468a138e74c354b,NA,us.ca_1468a1,-119.6332,34.43941,72,US,CA,Santa Barbara,America/Los_Angeles,NA,San Ysidro Road,Montecito,93108,NA,NA,NA,NA,NA,NA,NA,NA,NA,NA,NA,NA,NA,NA,NA,"Montecito Fire Station 1, San Ysidro Road, Montecito, CA 93108, United States of America",NA,NA,NA,NA,NA,NA,NA,NA
24570bab29a4db7c,NA,us.ca_24570b,-119.9362,37.56152,733,US,CA,Mariposa,America/Los_Angeles,NA,Central Yosemite Highway,NA,95345,NA,NA,NA,NA,NA,NA,NA,NA,NA,NA,NA,NA,NA,NA,NA,"Central Yosemite Highway, Mariposa County, CA 95345, United States of America",NA,NA,NA,NA,NA,NA,NA,NA
b91b65c98ce2e88e,NA,us.ca_b91b65,-121.0763,38.89728,375,US,CA,Placer,America/Los_Angeles,NA,White Street,Auburn,95603,NA,NA,NA,NA,NA,NA,NA,NA,NA,NA,NA,NA,NA,NA,NA,"White Street, Auburn, CA 95603, United States of America",NA,NA,NA,NA,NA,NA,NA,NA
727a47ae50f2298c,NA,us.ca_727a47,-119.3205,37.83694,2840,US,CA,Tuolumne,America/Los_Angeles,NA,Rafferty Creek Trail,NA,NA,NA,NA,NA,NA,NA,NA,NA,NA,NA,NA,NA,NA,NA,NA,NA,"Rafferty Creek Trail, Tuolumne County, CA, United States of America",NA,NA,NA,NA,NA,NA,NA,NA
f1fd6fc8c567f293,NA,us.ca_f1fd6f,-119.333,37.88955,2817,NA,NA,NA,NA,NA,NA,NA,NA,NA,NA,NA,NA,NA,NA,NA,NA,NA,NA,NA,NA,NA,NA,NA,NA,NA,NA,NA,NA,NA,NA,NA,NA
f56f3143f2f42c69,NA,us.ca_f56f31,-122.6709,38.43827,67,US,CA,Sonoma,America/Los_Angeles,1775,Yulupa Avenue,Santa Rosa,95405,NA,NA,NA,NA,NA,NA,NA,NA,NA,NA,NA,NA,NA,NA,NA,"1775 Yulupa Avenue, Santa Rosa, CA 95405, United States of America",NA,NA,NA,NA,NA,NA,NA,NA
c6cff56abdc478c3,NA,us.ca_c6cff5,-121.7093,39.7107,226,US,CA,Butte,America/Los_Angeles,NA,Skyway Road,NA,95967,NA,NA,NA,NA,NA,NA,NA,NA,NA,NA,NA,NA,NA,NA,NA,"Tuscan Ridge Golf Club, Skyway Road, Butte County, CA 95967, United States of America",NA,NA,NA,NA,NA,NA,NA,NA
8351fbb032518898,NA,us.ca_8351fb,-121.4695,38.47687,7,US,CA,Sacramento,America/Los_Angeles,NA,Billings Way,Sacramento,95832-1447,NA,NA,NA,NA,NA,NA,NA,NA,NA,NA,NA,NA,NA,NA,NA,"Billings Way, Sacramento, CA 95832-1447, United States of America",NA,NA,NA,NA,NA,NA,NA,NA
f7d8fe81b95dc495,NA,us.ca_f7d8fe,-121.4539,38.4852,7,US,CA,Sacramento,America/Los_Angeles,NA,Franklin Boulevard,Sacramento,95823,NA,NA,NA,NA,NA,NA,NA,NA,NA,NA,NA,NA,NA,NA,NA,"Prince of Peace Baptist Church, Franklin Boulevard, Sacramento, CA 95823, United States of America",NA,NA,NA,NA,NA,NA,NA,NA
a58c9ae51fbbd4fc,NA,us.ca_a58c9a,-122.258,38.33499,30,US,CA,Napa,America/Los_Angeles,NA,Vichy Avenue,NA,94558,NA,NA,NA,NA,NA,NA,NA,NA,NA,NA,NA,NA,NA,NA,NA,"Vichy Elementary School, Vichy Avenue, Vichy Springs, Napa County, CA 94558, United States of America",NA,NA,NA,NA,NA,NA,NA,NA
d0ca28fd87e0d6d6,NA,us.ca_d0ca28,-117.7142,35.64294,715,US,CA,Kern,America/Los_Angeles,1298,North Primavera Street,NA,93555,NA,NA,NA,NA,NA,NA,NA,NA,NA,NA,NA,NA,NA,NA,NA,"1298 North Primavera Street, Kern County, CA 93555, United States of America",NA,NA,NA,NA,NA,NA,NA,NA
184f17a174effc3b,NA,us.ca_184f17,-122.019,38.69658,58,US,CA,Yolo,America/Los_Angeles,26407,Woodland Avenue,NA,95627,NA,NA,NA,NA,NA,NA,NA,NA,NA,NA,NA,NA,NA,NA,NA,"26407 Woodland Avenue, Esparto, Yolo County, CA 95627, United States of America",NA,NA,NA,NA,NA,NA,NA,NA
d4c67c80a028a5f5,NA,us.ca_d4c67c,-121.5041,38.67135,5,US,CA,Sacramento,America/Los_Angeles,NA,Regency Park Circle,Sacramento,95835,NA,NA,NA,NA,NA,NA,NA,NA,NA,NA,NA,NA,NA,NA,NA,"Regency Park Circle, Sacramento, CA 95835, United States of America",NA,NA,NA,NA,NA,NA,NA,NA
f5884ab800663b59,NA,us.ca_f5884a,-124.2012,41.98617,24,US,CA,Del Norte,America/Los_Angeles,NA,Ocean View Drive,NA,95567,NA,NA,NA,NA,NA,NA,NA,NA,NA,NA,NA,NA,NA,NA,NA,"Ocean View Drive, Del Norte County, CA 95567, United States of America",NA,NA,NA,NA,NA,NA,NA,NA
c76ddd03fa64e09f,NA,us.ca_c76ddd,-120.4177,38.0289,634,US,CA,Tuolumne,America/Los_Angeles,22460,South Airport Road,NA,95310,NA,NA,NA,NA,NA,NA,NA,NA,NA,NA,NA,NA,NA,NA,NA,"22460 South Airport Road, Columbia, Tuolumne County, CA 95310, United States of America",NA,NA,NA,NA,NA,NA,NA,NA
e5d844bec9ecf65b,NA,us.ca_e5d844,-122.6707,38.48182,89,US,CA,Sonoma,America/Los_Angeles,4650,Badger Road,Santa Rosa,95409,NA,NA,NA,NA,NA,NA,NA,NA,NA,NA,NA,NA,NA,NA,NA,"Rincon Valley Middle School, 4650 Badger Road, Santa Rosa, CA 95409, United States of America",NA,NA,NA,NA,NA,NA,NA,NA
37e7d480a823f28b,NA,us.ca_37e7d4,-123.1026,39.32119,291,US,CA,Mendocino,America/Los_Angeles,10507,Main Street,NA,95469,NA,NA,NA,NA,NA,NA,NA,NA,NA,NA,NA,NA,NA,NA,NA,"10507 Main Street, Potter Valley, Mendocino County, CA 95469, United States of America",NA,NA,NA,NA,NA,NA,NA,NA
7a884167f18c049b,NA,us.ca_7a8841,-120.7874,40.66874,1567,US,CA,Lassen,America/Los_Angeles,NA,unnamed road,NA,NA,NA,NA,NA,NA,NA,NA,NA,NA,NA,NA,NA,NA,NA,NA,NA,"unnamed road, Lassen County, CA, United States of America",NA,NA,NA,NA,NA,NA,NA,NA
cd1044450afd7c4f,NA,us.ca_cd1044,-120.183,38.06667,1448,US,CA,Tuolumne,America/Los_Angeles,20780,State Highway 108,NA,95346,NA,NA,NA,NA,NA,NA,NA,NA,NA,NA,NA,NA,NA,NA,NA,"20780 State Highway 108, Mi-Wuk Village, Tuolumne County, CA 95346, United States of America",NA,NA,NA,NA,NA,NA,NA,NA
454905807bba78a1,NA,us.ca_454905,-121.7593,37.28006,157,US,CA,Santa Clara,America/Los_Angeles,5000,Farnsworth Drive,San Jose,95138,NA,NA,NA,NA,NA,NA,NA,NA,NA,NA,NA,NA,NA,NA,NA,"Silver Oak Elementary School, 5000 Farnsworth Drive, San Jose, CA 95138, United States of America",NA,NA,NA,NA,NA,NA,NA,NA
fac054e4c6adf466,NA,us.ca_fac054,-122.68,38.45758,70,US,CA,Sonoma,America/Los_Angeles,98,Buckwood Place,Santa Rosa,95409,NA,NA,NA,NA,NA,NA,NA,NA,NA,NA,NA,NA,NA,NA,NA,"98 Buckwood Place, Santa Rosa, CA 95409, United States of America",NA,NA,NA,NA,NA,NA,NA,NA
68ca0873430cc7a9,NA,us.ca_68ca08,-120.862,38.84951,578,US,CA,El Dorado,America/Los_Angeles,5059,Marshall Road,NA,95633,NA,NA,NA,NA,NA,NA,NA,NA,NA,NA,NA,NA,NA,NA,NA,"5059 Marshall Road, Garden Valley, El Dorado County, CA 95633, United States of America",NA,NA,NA,NA,NA,NA,NA,NA
283b7a0a4d6e8f5b,NA,us.ca_283b7a,-120.4945,38.45004,721,US,CA,Amador,America/Los_Angeles,28580,Tiger Creek Road,NA,95666,NA,NA,NA,NA,NA,NA,NA,NA,NA,NA,NA,NA,NA,NA,NA,"28580 Tiger Creek Road, Amador County, CA 95666, United States of America",NA,NA,NA,NA,NA,NA,NA,NA
10a4cce1e16bd140,NA,us.ca_10a4cc,-121.0168,38.889,466,US,CA,El Dorado,America/Los_Angeles,7200,Saint Florian Court,NA,95614,NA,NA,NA,NA,NA,NA,NA,NA,NA,NA,NA,NA,NA,NA,NA,"Station 72, 7200 Saint Florian Court, Cool, El Dorado County, CA 95614, United States of America",NA,NA,NA,NA,NA,NA,NA,NA
e0a279339200b68b,NA,us.ca_e0a279,-122.2784,41.22443,758,US,CA,Siskiyou,America/Los_Angeles,4385,Buckboard Lane,NA,96025,NA,NA,NA,NA,NA,NA,NA,NA,NA,NA,NA,NA,NA,NA,NA,"4385 Buckboard Lane, Dunsmuir, Siskiyou County, CA 96025, United States of America",NA,NA,NA,NA,NA,NA,NA,NA
fc3a0b1fc0059871,NA,us.ak_fc3a0b,-156.8799,64.74696,47,US,AK,Unorganized Borough,America/Anchorage,100,Antoski Road,NA,99741,NA,NA,NA,NA,NA,NA,NA,NA,NA,NA,NA,NA,NA,NA,NA,"100 Antoski Road, Galena, Unorganized Borough, AK 99741, United States of America",NA,NA,NA,NA,NA,NA,NA,NA
df43711cc1d6405a,NA,us.wa_df4371,-122.8073,47.04687,50,US,WA,Thurston,America/Los_Angeles,300,Desmond Drive Southeast,Lacey,98503,NA,NA,NA,NA,NA,NA,NA,NA,NA,NA,NA,NA,NA,NA,NA,"Washington State - Department of Ecology Building, 300 Desmond Drive Southeast, Lacey, WA 98503, United States of America",NA,NA,NA,NA,NA,NA,NA,NA
469e43b1fbd751ae,NA,us.nm_469e43,-107.8008,33.47435,2209,US,NM,Sierra,America/Denver,NA,NM 59,NA,NA,NA,NA,NA,NA,NA,NA,NA,NA,NA,NA,NA,NA,NA,NA,NA,"Kline Ranch, NM 59, Sierra County, NM, United States of America",NA,NA,NA,NA,NA,NA,NA,NA
4af78f6f1f1958dd,NA,us.nm_4af78f,-108.5409,33.86143,2189,US,NM,Catron,America/Denver,NA,NA,NA,87820,NA,NA,NA,NA,NA,NA,NA,NA,NA,NA,NA,NA,NA,NA,NA,"Aragon, Catron County, NM 87820, United States of America",NA,NA,NA,NA,NA,NA,NA,NA
75f49de873edd6d7,NA,us.nm_75f49d,-108.5362,33.88152,2036,US,NM,Catron,America/Denver,2598,NM 12,NA,87830,NA,NA,NA,NA,NA,NA,NA,NA,NA,NA,NA,NA,NA,NA,NA,"Santo Niño de Atocha Catholic Church, 2598 NM 12, Aragon, Catron County, NM 87830, United States of America",NA,NA,NA,NA,NA,NA,NA,NA
421d9e87cd2bedb2,NA,us.nm_421d9e,-107.6493,33.35343,1886,US,NM,Sierra,America/Denver,104,NM 52,NA,87943,NA,NA,NA,NA,NA,NA,NA,NA,NA,NA,NA,NA,NA,NA,NA,"104 NM 52, Winston, Sierra County, NM 87943, United States of America",NA,NA,NA,NA,NA,NA,NA,NA
30e1347860e894ef,NA,us.nm_30e134,-108.7892,33.65712,1726,US,NM,Catron,America/Denver,448,NM 435,NA,87830,NA,NA,NA,NA,NA,NA,NA,NA,NA,NA,NA,NA,NA,NA,NA,"448 NM 435, Reserve, Catron County, NM 87830, United States of America",NA,NA,NA,NA,NA,NA,NA,NA
c56826f5d4a601b1,NA,us.nm_c56826,-108.9416,33.79323,2170,US,NM,Catron,America/Denver,NA,Forestry Road 901,NA,87824,NA,NA,NA,NA,NA,NA,NA,NA,NA,NA,NA,NA,NA,NA,NA,"Forestry Road 901, Catron County, NM 87824, United States of America",NA,NA,NA,NA,NA,NA,NA,NA
f1de954bbad29bad,NA,us.nm_f1de95,-108.8577,33.68239,1934,US,NM,Catron,America/Denver,153,Spruce Street,NA,87830,NA,NA,NA,NA,NA,NA,NA,NA,NA,NA,NA,NA,NA,NA,NA,"153 Spruce Street, Rancho Grande Estates, Catron County, NM 87830, United States of America",NA,NA,NA,NA,NA,NA,NA,NA
59b5b9617c5241d5,NA,us.ca_59b5b9,-119.5887,37.32886,1120,US,CA,Madera,America/Los_Angeles,NA,Whipering Way,NA,93604,NA,NA,NA,NA,NA,NA,NA,NA,NA,NA,NA,NA,NA,NA,NA,"Whipering Way, Madera County, CA 93604, United States of America",NA,NA,NA,NA,NA,NA,NA,NA
7a7263f261592a8c,NA,us.az_7a7263,-111.2415,36.13591,1517,US,AZ,Coconino,America/Denver,250,Maple Street,NA,86045,NA,NA,NA,NA,NA,NA,NA,NA,NA,NA,NA,NA,NA,NA,NA,"250 Maple Street, Tuba City, Western Navajo Agency, AZ 86045, United States of America",NA,NA,NA,NA,NA,NA,NA,NA
